APN,Longitude,Latitude,Name,Address,Community,ConstructionType,HousingType,HCIDLA_Funded,Leverage,TECB,TDC,Photo
5054006007,-118.3000715,34.0299572,Windward Apts (A/B) (Site 8),2730 S Normandie Ave Ca 90007,ADAMS-NORMANDIE,Rehab,Family,0,7438473,4641342,12079815,http://hcidapp.lacity.org/mpphotos/ImageNotAvailable.png
5053012035,-118.3068943,34.03174904,Two World Apartments (Site 5),2625 S Harvard Blvd Ca 90018,ADAMS-NORMANDIE,Rehab,Seniors,3225000,17094146,0,20319146,http://hcidapp.lacity.org/mpphotos/070172/Photo/Website%20Site5/Two%20Worlds%202625%20S.%20Harvard%20-%20070172.png
5049014013,-118.3525139,34.03214247,Lexington Apartments A/B (Site 8),2607 S Mansfield Ave Ca 90016,ALSACE,Rehab,Family,0,6771719,10247566,17019285,http://hcidapp.lacity.org/mpphotos/ImageNotAvailable.png
5405021065,-118.2510489,34.07199525,Figueroa Place,1320 W Sunset Blvd 1-33 Ca 90026,ANGELINO HEIGHTS,New Construction,Large Family / Waiver Required,1647000,8292373,0,9939373,http://hcidapp.lacity.org/mpphotos/030166/Photo/Website/CD%201%20-%20Figueroa%20Place%20-%20030166.jpg
5442002908,-118.2339664,34.0974886,Rio Vista Apartments,"1515 N San Fernando Road Northeast Roadway 1-87  Los Angeles, Ca 90031",ATWATER VILLAGE,New Construction,Family,6022354,23669584,0,29691938,http://hcidapp.lacity.org/mpphotos/12-118780/Photo/Website/DSCF7272.png
5442002908,-118.2339664,34.0974886,Taylor Yard Master Association,1311 N San Fernando Road A-C Ca 90031,ATWATER VILLAGE,New Construction,N/A,9260275,0,0,9260275,http://hcidapp.lacity.org/mpphotos/13-119113/Photo/Website/Taylor%20yard%20Master%20DSCF6802.png
5183005052,-118.2094554,34.04485789,Las Margaritas,"137 N Soto St 1-20  Los Angeles, Ca 90033",BOYLE HEIGHTS,Both Rehab And New Construction,Family,559761,14135658,0,14695419,http://hcidapp.lacity.org/mpphotos/09-117211/Photo/Website/Las_Margaritas_137_Soto.png
5183005010,-118.2096693,34.04422001,Las Margaritas (Site 2),115 N Soto St Ca 90033,BOYLE HEIGHTS,Both Rehab And New Construction,Family,559761,14135658,0,14695419,http://hcidapp.lacity.org/mpphotos/09-117211/Photo/Website%20Site2/Las%20Margaritas%20115%20Soto.JPG
5183001048,-118.2137959,34.04788695,Las Margaritas (Site 3),319 N Cummings St Ca 90033,BOYLE HEIGHTS,Both Rehab And New Construction,Family,559761,14135658,0,14695419,http://hcidapp.lacity.org/mpphotos/09-117211/Photo/Website%20Site3/Las%20Margaritas%20319%20Cummings.JPG
5183023003,-118.2169235,34.03875823,Linda Vista Nurses Building,630 S St Louis St Ca 90023,BOYLE HEIGHTS,Acquisition + Rehab,Seniors,4214325,3959132,759870,8933327,http://hcidapp.lacity.org/mpphotos/10-118599/Photo/Website/10-118599.JPG
5188005031,-118.1967781,34.02611829,The Whittier,"3555 E Whittier Blvd 1-60  Los Angeles, Ca 90023",BOYLE HEIGHTS,New Construction,Family,4907400,19070042,0,23977442,http://hcidapp.lacity.org/mpphotos/11-117205/Photo/Website/thewhittier4814_009.png
5191012020,-118.1993104,34.02223101,Beswick Senior Apartments,"3553 E Beswick St  Los Angeles, Ca 90023",BOYLE HEIGHTS,New Construction,Seniors,2374632,9212897,0,11587529,http://hcidapp.lacity.org/mpphotos/12-118877/Photo/Website/beswick%20sr%20png.png
5183023003,-118.2169235,34.03875823,Linda Vista Apartments (Phase Ii),"610 S St Louis St  Los Angeles, Ca 90023",BOYLE HEIGHTS,Rehab,Seniors,13635675,20513952,0,34149627,http://hcidapp.lacity.org/mpphotos/13-119072/Photo/Website/150_1603.png
2111005034,-118.5982863,34.20814091,Tierra Del Sol,7500 N Alabama Ave 1-119 Ca 91303,CANOGA PARK,New Construction,Large Family / Waiver Required,8125000,15158179,2103714,25386893,http://hcidapp.lacity.org/mpphotos/000124/Photo/Website/CD%203%20-%20Tierra%20Del%20Sol%20-%20000124.jpg
2138005006,-118.6017886,34.1967635,Hart Village,6941 N Owensmouth Ave Ca 91303,CANOGA PARK,New Construction,Large Family / Waiver Required,2538000,16109027,0,18647027,http://hcidapp.lacity.org/mpphotos/050030/Photo/Website/CD%203%20-%20Hart%20Village.jpg
2137020037,-118.5851998,34.20086116,Winnetka Senior Apartments,20750 W Sherman Way Ca 91306,CANOGA PARK,New Construction,Seniors,12900000,8461013,5500000,26861013,http://hcidapp.lacity.org/mpphotos/ImageNotAvailable.png
5119001028,-118.2518918,34.02272547,Central Village Apts.,1315 E 21St St 201-221 Ca 90011,CENTRAL-ALAMEDA,New Construction,Family,2762655,21148534,2570000,26481189,http://hcidapp.lacity.org/mpphotos/040072/Photo/Website/CD%209%20-%20Central%20Village.JPG
5119005012,-118.2531383,34.02055742,Lexington Apartments A/B (Site 14),1317 E 23Rd St Ca 90011,CENTRAL-ALAMEDA,Rehab,Family,0,6771719,10247566,17019285,http://hcidapp.lacity.org/mpphotos/ImageNotAvailable.png
5131020009,-118.2556135,34.02132999,Lexington Apartments A/B (Site 11),1145 E 24Th St Ca 90011,HISTORIC SOUTH-CENTRAL,Rehab,Family,0,6771719,10247566,17019285,http://hcidapp.lacity.org/mpphotos/ImageNotAvailable.png
5119002017,-118.2493169,34.02175885,Lexington Apartments A/B (Site 12),1386 E 20Th St Ca 90011,CENTRAL-ALAMEDA,Rehab,Family,0,6771719,10247566,17019285,http://hcidapp.lacity.org/mpphotos/ImageNotAvailable.png
5131026028,-118.255789,34.01931722,Adams And Central Mix-Use,1011 E Adams Blvd 1-80 Ca 90011,HISTORIC SOUTH-CENTRAL,New Construction,Family,5788800,25260320,0,31049120,http://hcidapp.lacity.org/mpphotos/070018/Photo/Website/CD%209%20-%20Adams%20&%20Central%20Mixed.jpg
5114026039,-118.2563517,34.01309995,Rittenhouse Square,3310 S Central Ave Ca 90011,CENTRAL-ALAMEDA,New Construction,Seniors,5683872,22735937,0,28419809,http://hcidapp.lacity.org/mpphotos/070032/Photo/Website/CD%209%20-%20Rittenhouse%20Square.jpg
5120009017,-118.2717392,34.01635883,36Th Street And Broadway Apartments (Site 2),161 E 36Th St Ca 90011,HISTORIC SOUTH-CENTRAL,Rehab,Special Needs,2938772,8338570,0,11277342,http://hcidapp.lacity.org/mpphotos/ImageNotAvailable.png
5128015021,-118.2608082,34.01761638,The Crossing On 29Th St.,"814 E 29Th St  Los Angeles, Ca 90011",HISTORIC SOUTH-CENTRAL,New Construction,Family,3262880,17610140,0,20873020,http://hcidapp.lacity.org/mpphotos/09-117212/Photo/Website/crossingat29thgo12612_031-.png
5128022009,-118.2575853,34.01700774,The 28Th St Apartments/Fka The 28Th St Ymca,1006 E 28Th St 1-49 Ca 90011,HISTORIC SOUTH-CENTRAL,Both Rehab And New Construction,Sro,3287944,18200934,0,21488878,http://hcidapp.lacity.org/mpphotos/10-117457/Photo/Website/10-117457.JPG
5128024037,-118.2557904,34.01807436,Roberta Stephens Villas I & Ii,"1035 E 27Th  Los Angeles, Ca 90011",HISTORIC SOUTH-CENTRAL,Acquisition + Rehab,Seniors,0,3360040,1995093,5355133,http://hcidapp.lacity.org/mpphotos/ImageNotAvailable.png
5119011019,-118.2550621,34.01791077,Roberta Stephens Villas I & Ii (Site 2),1113 E 27Th St Ca 90011,CENTRAL-ALAMEDA,Acquisition + Rehab,Seniors,0,3360040,1995093,5355133,http://hcidapp.lacity.org/mpphotos/ImageNotAvailable.png
5119003027,-118.2520059,34.02190486,Central Court Apartments (Csp Ii),1316 E 21St St Ca 90011,CENTRAL-ALAMEDA,Rehab,Special Needs,645283,1087849,0,1733132,http://hcidapp.lacity.org/mpphotos/910357/Photo/Website/CD%209%20-%20Central%20Court.JPG
6051028006,-118.2649999,33.94063107,Leeward Apts. (Site 15),"10510 S Avalon Blvd  Los Angeles, Ca 90002",GREEN MEADOWS,Rehab,Family,0,7103994,10208936,17312930,http://hcidapp.lacity.org/mpphotos/ImageNotAvailable.png
6051030019,-118.2634493,33.93844191,Windward Apts (A/B) (Site 13),651 E 108Th St Ca 90002,GREEN MEADOWS,Rehab,Family,0,7438473,4641342,12079815,http://hcidapp.lacity.org/mpphotos/ImageNotAvailable.png
6071001013,-118.26374,33.93817372,Windward Apts (A/B) (Site 14),636 E 108Th St 1-4 Ca 90059,GREEN MEADOWS,Rehab,Family,0,7438473,4641342,12079815,http://hcidapp.lacity.org/mpphotos/ImageNotAvailable.png
6051023039,-118.2617844,33.9384352,Windward Apts (A/B) (Site 11),733 E 108Th St Ca 90002,GREEN MEADOWS,Rehab,Family,0,7438473,4641342,12079815,http://hcidapp.lacity.org/mpphotos/ImageNotAvailable.png
6071011007,-118.2618256,33.93816627,Windward Apts (A/B) (Site 12),732 E 108Th St Ca 90059,GREEN MEADOWS,Rehab,Family,0,7438473,4641342,12079815,http://hcidapp.lacity.org/mpphotos/ImageNotAvailable.png
6132024010,-118.2784686,33.92348284,Maya Townhomes,"12005 S Broadway  Los Angeles, Ca 90061",BROADWAY-MANCHESTER,New Construction,Family,2055350,7237394,0,9292744,http://hcidapp.lacity.org/mpphotos/080008/Photo/Website/maya12005broadwa_010-.png
2783027046,-118.5574214,34.22839505,Parthenia St Senior Hsng.,19455 W Parthenia St 1-77 Ca 91324,CHATSWORTH,New Construction,Seniors,1931627,9229203,0,11160830,http://hcidapp.lacity.org/mpphotos/040004/Photo/Website/CD%2012%20-%20Parthenia%20St.%20Senior.jpg
5408018028,-118.2414301,34.06161943,Yale Terrace,716 N Yale St 1-55 Ca 90012,CHINATOWN,New Construction,Large Family / Waiver Required,2133310,23154000,0,25287310,http://hcidapp.lacity.org/mpphotos/050007/Photo/Website/CD%201%20-%20Yale%20Terrace%20-%20050007.jpg
5407024005,-118.241785,34.06189377,Yale Street Family Housing,"715-721 Yale St  Los Angeles, Ca 90012",CHINATOWN,New Construction,Family,5093531,18993842,0,24087373,http://hcidapp.lacity.org/mpphotos/10-117558/Photo/Website/Yale%20Street%20Family.png
5408029005,-118.2367413,34.06197722,Chinatown Metro Apartments,"808 N North Spring St  Los Angeles, Ca 90012",CHINATOWN,Both Rehab And New Construction,Seniors,12600000,28500009,3810000,44910009,http://hcidapp.lacity.org/mpphotos/10-117999/Photo/Website/Chinatown%20Metro.JPG
5082006029,-118.3316341,34.05355679,Leeward Apts. (Site 10),1130 S West Blvd Ca 90019,MID-WILSHIRE,Rehab,Family,0,7103994,10208936,17312930,http://hcidapp.lacity.org/mpphotos/ImageNotAvailable.png
5092003023,-118.3220195,34.05612269,Ldk Senior Apartments,900 S Crenshaw Blvd Ca 90019,KOREATOWN,Demo/New Construction,Seniors,8687337,17414515,212000,26313852,http://hcidapp.lacity.org/mpphotos/14-121119/Photo/Website/LDK%20900%20Crenshaw.png
5050011005,-118.3418241,34.03071244,Leeward Apts. (Site 7),2809 S West Blvd Ca 90016,WEST ADAMS,Rehab,Family,0,7103994,10208936,17312930,http://hcidapp.lacity.org/mpphotos/ImageNotAvailable.png
5050012014,-118.3415589,34.03024903,Leeward Apts. (Site 8),2828 S West Blvd Ca 90016,WEST ADAMS,Rehab,Family,0,7103994,10208936,17312930,http://hcidapp.lacity.org/mpphotos/ImageNotAvailable.png
5050011006,-118.3418248,34.0305613,Windward Apts (A/B) (Site 5),2815 S West Blvd Ca 90016,WEST ADAMS,Rehab,Family,0,7438473,4641342,12079815,http://hcidapp.lacity.org/mpphotos/ImageNotAvailable.png
4218007026,-118.4170925,33.99544387,Del Rey Square Senior Housing,"11976 W Culver Blvd  Los Angeles, Ca 90230",DEL REY,New Construction,Seniors,9389134,28060445,0,37449579,http://hcidapp.lacity.org/mpphotos/10-117553/Photo/Website/10-117553.JPG
5134014019,-118.2678742,34.03575814,New Carver,1624 S Hope St 1-97 Ca 90015,DOWNTOWN,New Construction,Special Needs / Homeless,6600000,27345678,0,33945678,http://hcidapp.lacity.org/mpphotos/070045/Photo/Website/070045.JPG
5148009015,-118.2481965,34.04681653,New Genesis,452 S Main St Ca 90013,DOWNTOWN,New Construction,Special Needs,5587486,31038161,0,36625647,http://hcidapp.lacity.org/mpphotos/080059/Photo/Website/080059.JPG
5134014021,-118.2671727,34.03520967,Eecbg - Young Apartments,1621 S Grand Ave Ca 90015,DOWNTOWN,New Construction,Sro,236206,0,0,236206,http://hcidapp.lacity.org/mpphotos/10-118601/Photo/Website/1621%20SOUTH%20GRAND%20AVENUE.png
5148019011,-118.2484034,34.04635884,New Pershing Apartments,"108 E 5Th St 1-69  Los Angeles, Ca 90013",DOWNTOWN,Rehab,Special Needs / Homeless,3500000,28113821,0,31613821,http://hcidapp.lacity.org/mpphotos/12-118778/Photo/Website/12-118778.jpg
5149037010,-118.2490649,34.04689682,Rosslyn Hotel Apartments,"112 W 5Th St  Los Angeles, Ca 90013",DOWNTOWN,Rehab,Special Needs / Homeless & Other Low Income Population,8138435,27382725,0,35521160,http://hcidapp.lacity.org/mpphotos/12-118785/Photo/Website/12-118785.jpg
5151004913,-118.2515259,34.05424878,Parcel M-Grand Ave.,225 S Grand Ave Ca 90012,DOWNTOWN,New Construction,Family,0,14195189,102905000,117100189,http://hcidapp.lacity.org/mpphotos/12-118869/Photo/Website/Parcel%20M-%20Grand%20Ave.png
5542027032,-118.2879154,34.09214334,Lexington Apartments A/B (Site 3),1141 N Westmoreland Ave Ca 90029,E. HOLLYWOOD,Rehab,Family,0,6771719,10247566,17019285,http://hcidapp.lacity.org/mpphotos/ImageNotAvailable.png
5542028022,-118.2901357,34.09333386,Lexington Apartments A/B (Site 4),4612 W Lexington Ave Ca 90029,E. HOLLYWOOD,Rehab,Family,0,6771719,10247566,17019285,http://hcidapp.lacity.org/mpphotos/ImageNotAvailable.png
5540016014,-118.2941598,34.09353776,Lexington Apartments A/B (Site 5),4829 W Lexington Ave Ca 90029,E. HOLLYWOOD,Rehab,Family,0,6771719,10247566,17019285,http://hcidapp.lacity.org/mpphotos/ImageNotAvailable.png
5538002035,-118.2986471,34.09066979,Mariposa Place Apartments,1050 N Mariposa Ave Ca 90029,E. HOLLYWOOD,New Construction,Large Family / Waiver Required,3132000,20876307,1532000,25540307,http://hcidapp.lacity.org/mpphotos/050004/Photo/Website/CD%2013%20-%20Mariposa%20Place.JPG
5538017028,-118.29512,34.08628084,Hdr I & Ii (Site 6),811 N Heliotrope Dr Ca 90029,E. HOLLYWOOD,Rehab,Family,0,8116043,6787000,14903043,http://hcidapp.lacity.org/mpphotos/ImageNotAvailable.png
5422020031,-118.2575001,34.09131037,Allesandro Street Apts.,1934 N Allesandro St Ca 90039,ECHO PARK,New Construction,Special Needs / Hiv/Aids Individuals/Families,620900,3037101,0,3658001,http://hcidapp.lacity.org/mpphotos/000156/Photo/Website/CD%2013%20-%20Allesandro%20St.%20Apts..jpg
5160005028,-118.2573074,34.06797558,Temple Villas,1421 W Temple St 1-52 Ca 90026,ECHO PARK,New Construction,Family,3137768,10165531,0,13303299,http://hcidapp.lacity.org/mpphotos/040007/Photo/Website/CD%201%20-%20Temple%20Villas%20-%20040007.jpg
5309017036,-118.1651439,34.09196825,Cuatro Vientos,"5312 E Almont St  Los Angeles, Ca 90032",EL SERENO,New Construction,Family,1769655,11345458,0,13115113,http://hcidapp.lacity.org/mpphotos/09-104531/Photo/Website/09-104531[1].png
5442003016,-118.2450471,34.10090009,Hdr I & Ii (Site 7),2747 N Newell St Ca 90039,ELYSIAN VALLEY,Rehab,Family,0,8116043,6787000,14903043,http://hcidapp.lacity.org/mpphotos/ImageNotAvailable.png
5445007903,-118.2305915,34.0942194,Taylor Yard Apartments,"1545 N San Fernando Rd  Los Angeles, Ca 90065",ELYSIAN VALLEY,New Construction,Family,6199789,11514000,3500000,21213789,http://hcidapp.lacity.org/mpphotos/11-117797/Photo/Website/11-117797.jpg
5037007026,-118.298345,34.01423486,Ingram Preservation (Site 6),1225 W 39Th Pl Ca 90037,EXPOSITION PARK,Rehab,Large Family / Waiver Required,4900000,6637761,2790000,14327761,http://hcidapp.lacity.org/mpphotos/030159/Photo/Website%20Site6/39th%20Place%20%202.png
5037020016,-118.293885,34.01423492,Ingram Preservation (Site 7),1075 W 39Th Pl Ca 90037,EXPOSITION PARK,Rehab,Large Family / Waiver Required,4900000,6637761,2790000,14327761,http://hcidapp.lacity.org/mpphotos/030159/Photo/Website%20Site7/IngramPres_107539th.png
5037017010,-118.2931853,34.01678135,Royals Apartments (Site 4),3817 S Wisconsin St Ca 90037,EXPOSITION PARK,Rehab,Family,1100000,13039479,0,14139479,http://hcidapp.lacity.org/mpphotos/040067/Photo/Website%20Site4/royalswisconsin3817wisconsin315072of5(PNG).png
5036023007,-118.3055467,34.0138576,Leeward Apts. (Site 9),3918 S La Salle Ave Ca 90062,EXPOSITION PARK,Rehab,Family,0,7103994,10208936,17312930,http://hcidapp.lacity.org/mpphotos/ImageNotAvailable.png
5042027012,-118.3123072,34.02198044,Leeward Apts. (Site 6),1811 W 36Th Pl Ca 90018,EXPOSITION PARK,Rehab,Family,0,7103994,10208936,17312930,http://hcidapp.lacity.org/mpphotos/ImageNotAvailable.png
5037009012,-118.2992309,34.01562015,Windward Apts (A/B) (Site 6),1253 W 39Th St Ca 90037,EXPOSITION PARK,Rehab,Family,0,7438473,4641342,12079815,http://hcidapp.lacity.org/mpphotos/ImageNotAvailable.png
5036012028,-118.3046607,34.01500069,Windward Apts (A/B) (Site 7),3881 S Denker Ave Ca 90062,EXPOSITION PARK,Rehab,Family,0,7438473,4641342,12079815,http://hcidapp.lacity.org/mpphotos/ImageNotAvailable.png
5037020015,-118.2938489,34.014253,Hdr I & Ii (Site 3),1063 W 39Th Pl Ca 90037,EXPOSITION PARK,Rehab,Family,0,8116043,6787000,14903043,http://hcidapp.lacity.org/mpphotos/ImageNotAvailable.png
5036023014,-118.3046638,34.01413061,La Pro Ii (Site 3),3909 S Denker Ave Ca 90062,EXPOSITION PARK,New Construction,Family,2000000,31674331,0,33674331,http://hcidapp.lacity.org/mpphotos/11-118571/Photo/Website%20Site3/la%20pro%20ii%2011-118571c.JPG
5053006050,-118.3090607,34.02719775,Jefferson Park Terrace,"3023 S Western Ave  Los Angeles, Ca 90018",EXPOSITION PARK,Demo/New Construction,Family,518300,17162642,0,17680942,http://hcidapp.lacity.org/mpphotos/11-118593/Photo/Website/jeffersonparkterrace42314_004.png
6075020013,-118.2827877,33.9369643,Leeward Apts. (Site 2),10915 S Figueroa St Ca 90044,VERMONT VISTA,Rehab,Family,0,7103994,10208936,17312930,http://hcidapp.lacity.org/mpphotos/ImageNotAvailable.png
6006006026,-118.2734195,33.98525397,Main Street Vistas,"5950 Main St  Los Angeles, Ca 90003",FLORENCE-FIRESTONE,New Construction,Family,2444000,12079680,0,14523680,http://hcidapp.lacity.org/mpphotos/030157/Photo/Website/CD%209%20-%20Main%20St.%20Vistas.jpg
6030011028,-118.273706,33.96322188,Leeward Apts. (Site 14),8318 S Main St Ca 90003,FLORENCE-FIRESTONE,Rehab,Family,0,7103994,10208936,17312930,http://hcidapp.lacity.org/mpphotos/ImageNotAvailable.png
6022009004,-118.2697266,33.97405266,Lexington Apartments A/B (Site 7),7219 S San Pedro St Ca 90003,FLORENCE-FIRESTONE,Rehab,Family,0,6771719,10247566,17019285,http://hcidapp.lacity.org/mpphotos/ImageNotAvailable.png
6031019008,-118.2747928,33.96877248,Windward Apts (A/B) (Site 19),120 W 78Th St 1-4 Ca 90003,FLORENCE-FIRESTONE,Rehab,Family,0,7438473,4641342,12079815,http://hcidapp.lacity.org/mpphotos/ImageNotAvailable.png
6022020032,-118.2693578,33.97176727,Windward Apts (A/B) (Site 15),7512 S San Pedro St 1-4 Ca 90003,FLORENCE-FIRESTONE,Rehab,Family,0,7438473,4641342,12079815,http://hcidapp.lacity.org/mpphotos/ImageNotAvailable.png
5474023016,-118.2209081,34.12190991,Tres Lomas Garden Apts.,4343 N Toland Way Ca 90041,GLASSELL PARK,Acquisition + Rehab,Seniors,2225251,4586754,562729,7374734,http://hcidapp.lacity.org/mpphotos/070171/Photo/Website/CD%2014%20-%20Tres%20Lomas%20-%20070171.JPG
5456012904,-118.2375731,34.10547602,Glassell Park Community Hsg/Aka Rio Vista Apt,3000 N Verdugo Road 1-50 Ca 90065,GLASSELL PARK,New Construction,Family,2640475,26061533,0,28702008,http://hcidapp.lacity.org/mpphotos/09-117384/Photo/Website/glassellpark1912_007-.png
5474022011,-118.2234198,34.12242913,Eagle Vista (Aka Teague Terrace),4260 N Eagle Rock Blvd Ca 90041,GLASSELL PARK,New Construction,"Special Needs / Developmentally Disabled Individuals, Homeless Vet",1773961,15806726,0,17580687,http://hcidapp.lacity.org/mpphotos/12-118878/Photo/Website/Eagle%20Vista.png
5473006006,-118.2265258,34.12148064,T. Bailey Manor,4121 N Eagle Rock Blvd Ca 90065,GLASSELL PARK,Demo/New Construction,"Special Needs / Disabled, Homeless Veterans",4740000,4015323,10000000,18755323,http://hcidapp.lacity.org/mpphotos/14-121712/Photo/Website/Project%203.png
6058007004,-118.3093325,33.9423723,La Pro Ii,10311 S Western Ave Ca 90047,GRAMERCY PARK,New Construction,Family,2000000,31674331,0,33674331,http://hcidapp.lacity.org/mpphotos/11-118571/Photo/Website/LA%20PRO%20II%2010311_S._Western.JPG
6041015033,-118.270948,33.9581659,Windward Apts (A/B) (Site 17),219 E 87Th Pl Ca 90003,GREEN MEADOWS,Rehab,Family,0,7438473,4641342,12079815,http://hcidapp.lacity.org/mpphotos/ImageNotAvailable.png
6051010029,-118.2544827,33.94226948,Imani Fe East & West (Site 2),10345 S Central Ave 1-43 Ca 90002,GREEN MEADOWS,New Construction,Family,6001178,31661768,0,37662946,http://hcidapp.lacity.org/mpphotos/060059/Photo/Website%20Site2/imani%20fe%20West.png
7442001022,-118.3047647,33.77930168,Navy Village,"1556 W Palos Verdes Dr N  Los Angeles, Ca 90732",HARBOR CITY,Rehab,Family,2673764,27005640,0,29679404,http://hcidapp.lacity.org/mpphotos/13-119071/Photo/Website/150_2668.png
7413012938,-118.2924961,33.79268581,Harbor Village Apartments,981 W Harbor Village Dr Ca 90710,HARBOR CITY,Acquisition + Rehab,Family,0,23791743,41877000,65668743,http://hcidapp.lacity.org/mpphotos/13-119184/Photo/Website/Harbor%20Village%20Aprts.png
6117019016,-118.2877424,33.91658684,Royals Apartments,717 W El Segundo Blvd Ca 90044,HARBOR GATEWAY,Rehab,Family,1100000,13039479,0,14139479,http://hcidapp.lacity.org/mpphotos/040067/Photo/Website/CD%2015%20-%20The%20Royals.jpg
6117003018,-118.2830083,33.92316153,My Town Homes,12015 S Figueroa St 1-21 Ca 90044,HARBOR GATEWAY,New Construction,Family,2006300,6359207,0,8365507,http://hcidapp.lacity.org/mpphotos/080002/Photo/Website/mytownhomes12015figueroa42414_005.png
6111025904,-118.2983674,33.87030212,Sage Park,"1302 W 177Th St  Los Angeles, Ca 90248",HARBOR GATEWAY,New Construction,Family,3473070,24597678,0,28070748,http://hcidapp.lacity.org/mpphotos/12-118781/Photo/Website/150_2481.png
6120018084,-118.2903866,33.88305477,Vermont Villas,"16304 S Vermont Ave  Los Angeles, Ca 90247",HARBOR GATEWAY,New Construction,Special Needs,3872900,17861000,0,21733900,"http://hcidapp.lacity.org/mpphotos/13-119250/Photo/Website/Vermont%20Villas%20-%20%20April%2017,%202014.png"
5073007004,-118.3118391,34.0446543,Ingram Preservation (Site 3),1525 S St Andrews Pl 1-27 Ca 90019,HARVARD HEIGHTS,Rehab,Large Family / Waiver Required,4900000,6637761,2790000,14327761,http://hcidapp.lacity.org/mpphotos/030159/Photo/Website%20Site3/St%20Andrews%204.png
5073024026,-118.3166126,34.04132899,Ingram Preservation (Site 5),1809 S Van Ness Ave 1-16 Ca 90019,HARVARD HEIGHTS,Rehab,Large Family / Waiver Required,4900000,6637761,2790000,14327761,http://hcidapp.lacity.org/mpphotos/030159/Photo/Website%20Site5/IngramPres_VanNess.png
5075001016,-118.2923024,34.04682827,Pico New Hampshire Apts.,1308 S New Hampshire Ave 1-30 Ca 90006,HARVARD HEIGHTS,New Construction,Large Family / Waiver Required,1942833,4694005,840000,7476838,http://hcidapp.lacity.org/mpphotos/030171/Photo/Website/CD%201%20-%20Pico%20New%20Hampshire.jpg
5075006018,-118.2948891,34.0464205,Royals Apartments (Site 3),1327 S Catalina St Ca 90006,HARVARD HEIGHTS,Rehab,Family,1100000,13039479,0,14139479,http://hcidapp.lacity.org/mpphotos/040067/Photo/Website%20Site3/royalscatalina1327catalina315072of6(PNG).png
5073007020,-118.3118872,34.04491279,St. Andrews,1511 S St Andrews Pl 1-43 Ca 90019,HARVARD HEIGHTS,Rehab,Family,1075000,7554360,0,8629360,http://hcidapp.lacity.org/mpphotos/070035/Photo/Website/CD%2010%20-%20St.%20Andrews%20-%20070035.png
5075007010,-118.2968721,34.04627529,Professional Hsg. & Dev. Apts. (Ph & D) (Site 2),"1400 S Kenmore Ave  Los Angeles, Ca 90006",HARVARD HEIGHTS,Rehab,Family,4575000,10250907,0,14825907,http://hcidapp.lacity.org/mpphotos/080053/Photo/Website%20Site2/PH&D%201745%20W%2020th.jpg
6013006021,-118.2881807,33.97648339,Menlo Park,831 W 70Th St 1-49 Ca 90044,HARVARD PARK,New Construction,Family,6925014,18286197,0,25211211,http://hcidapp.lacity.org/mpphotos/080010/Photo/Website/080010.jpg
6004015900,-118.2912842,33.98246609,Park Plaza (Plaza Vermont),960 W 62Nd Pl Ca 90044,HARVARD PARK,Acquisition + Rehab,Family,10150000,6752959,2397110,19300069,http://hcidapp.lacity.org/mpphotos/ImageNotAvailable.png
5492023001,-118.1881784,34.11041089,Pisgah Village,6000 E Echo St Ca 90042,HIGHLAND PARK,Rehab,Seniors,3100000,6275599,0,9375599,http://hcidapp.lacity.org/mpphotos/020284/Photo/Website/CD%201%20-%20Pisgah%20Village.jpg
5492034006,-118.1829946,34.11441951,Hdr I & Ii (Site 8),111 S Avenue 63 Ca 90042,HIGHLAND PARK,Rehab,Family,0,8116043,6787000,14903043,http://hcidapp.lacity.org/mpphotos/ImageNotAvailable.png
5546009043,-118.3279908,34.10000137,Encore Hall,1602 N Ivar Ave 1-104 Ca 90028,HOLLYWOOD,New Construction,Seniors,1700000,16928000,2040000,20668000,http://hcidapp.lacity.org/mpphotos/030165/Photo/Website/CD%2013%20-%20Encore%20Hall.JPG
5544022059,-118.3090285,34.0987869,Views At 270,"5445 W Sunset Blvd  Hollywood, Ca 90027",EAST HOLLYWOOD,New Construction,Large Family / Waiver Required,900000,23557005,1685900,26142905,http://hcidapp.lacity.org/mpphotos/030272/Photo/Website/CD%2013%20-%20Views%20@%20270.jpg
5546020005,-118.3250678,34.09517192,Afton Place,6231 Afton Pl Ca 90028,HOLLYWOOD,Acquisition + Rehab,Seniors,1732830,5188563,1830000,8751393,http://hcidapp.lacity.org/mpphotos/040011/Photo/Website/CD%2013%20-%20Afton%20Place.JPG
5534009030,-118.3181011,34.09374656,Bronson Courts,"1229 N Bronson Ave 1-32  Hollywood, Ca 90038",HOLLYWOOD,New Construction,Large Family / Waiver Required,2240000,11494453,0,13734453,http://hcidapp.lacity.org/mpphotos/060005/Photo/Website/CD%2013%20-%20Bronson%20Court.jpg
5533003022,-118.329099,34.0935586,Stevenson Manor,1230 N Cole Ave Ca 90038,HOLLYWOOD,Rehab,Seniors,5633960,8424474,0,14058434,http://hcidapp.lacity.org/mpphotos/060018/Photo/Website/CD%2013%20-%20Stevenson%20Manor.JPG
5544025033,-118.3095725,34.10126711,Bricker,"1671 N Western Ave  Los Angeles, Ca 90028",HOLLYWOOD,Acquisition + Rehab,Seniors,627878,6465419,0,7093297,http://hcidapp.lacity.org/mpphotos/060057/Photo/Website/060057.JPG
5545002901,-118.322163,34.10252955,The Villas At Gower,"1726 N Gower St 1-70  Los Angeles, Ca 90028",HOLLYWOOD,New Construction,Special Needs,1500000,29391014,0,30891014,http://hcidapp.lacity.org/mpphotos/09-117312/Photo/Website/09-117312.jpg
5544003001,-118.311323,34.10190261,5555 Hollywood,"5555 W Hollywood Blvd  Los Angeles, Ca 90028",HOLLYWOOD,New Construction,Seniors,5104920,37474763,0,42579683,http://hcidapp.lacity.org/mpphotos/10-117631/Photo/Website/10-117631.JPG
5545007097,-118.3197281,34.09976254,The Gordon,"1553 N Gordon St  Los Angeles, Ca 90028",HOLLYWOOD,New Construction,Family,1650000,7777676,0,9427676,http://hcidapp.lacity.org/mpphotos/11-117795/Photo/Website/11-117795.jpg
5548018027,-118.3461284,34.09777944,Michael'S Village,"7160 W Sunset Blvd  Los Angeles, Ca 90046",HOLLYWOOD,Rehab,Special Needs,1301307,3677788,0,4979095,http://hcidapp.lacity.org/mpphotos/12-118880/Photo/Website/Michaels_Village.png
5534015016,-118.3221269,34.09290151,Hollywoodland,"1206 N Gower St  Hollywood, Ca 90038",HOLLYWOOD,Acquisition + Rehab,Seniors,0,0,10500000,10500000,http://hcidapp.lacity.org/mpphotos/ImageNotAvailable.png
5534015018,-118.3221212,34.09321812,Hollywoodland (Site 2),"1222 N Gower St  Hollywood, Ca 90038",HOLLYWOOD,Acquisition + Rehab,Seniors,0,0,10500000,10500000,http://hcidapp.lacity.org/mpphotos/ImageNotAvailable.png
5545014044,-118.3199742,34.09674182,Hollywoodland (Site 6),"1438 N Gordon St  Hollywood, Ca 90028",HOLLYWOOD,Acquisition + Rehab,Seniors,0,0,10500000,10500000,http://hcidapp.lacity.org/mpphotos/ImageNotAvailable.png
5544021029,-118.3073778,34.10137343,5400 Hollywood Family Apartments,5400 W Hollywood Blvd Ca 90027,EAST HOLLYWOOD,New Construction,Family,1950000,18803961,0,20753961,http://hcidapp.lacity.org/mpphotos/ImageNotAvailable.png
4012018025,-118.331394,33.97354595,Morgan Place Senior Apts.,7305 S Crenshaw Blvd Ca 90043,HYDE PARK,New Construction,Seniors,5281147,8428737,0,13709884,http://hcidapp.lacity.org/mpphotos/060013/Photo/Website/CD%208%20-%20Morgan%20Place%20Sr.%20Apts..jpg
5052001037,-118.3216256,34.02574718,Jefferson Blvd & Fifth Ave. Apartments,2401 W Jefferson Blvd Ca 90018,JEFFERSON PARK,New Construction,Family,3250000,13946974,0,17196974,http://hcidapp.lacity.org/mpphotos/11-117798/Photo/Website/Jefferson%20blvd%20fifth%20ave.png
5080024024,-118.3040462,34.05410549,Harvard Heights,950-960 1/2 S Harvard Blvd Ca 90006,KOREATOWN,New Construction,Large Family / Waiver Required,3405164,8458700,0,11863864,http://hcidapp.lacity.org/mpphotos/040006/Photo/Website/CD%2010%20-%20Harvard%20Heights.png
5078006025,-118.2956676,34.05432688,Concord Apartments (Grp. A & B) (Site 6),3030 W San Marino St Ca 90006,KOREATOWN,Rehab,Family,0,7334438,8579256,15913694,http://hcidapp.lacity.org/mpphotos/ImageNotAvailable.png
5093016018,-118.3051652,34.05504995,The Hobart / Aka Hobart Heights Apt. Homes,924 S Hobart Blvd 1-49 Ca 90006,KOREATOWN,New Construction,Large Family / Waiver Required,3745640,14678863,0,18424503,http://hcidapp.lacity.org/mpphotos/060058/Photo/Website/CD%2010%20-%20Hobart%20Heights.png
5080031055,-118.3022496,34.0538365,The Ardmore,959 S Ardmore Ave Ca 90006,KOREATOWN,New Construction,Family,3673280,17331397,0,21004677,"http://hcidapp.lacity.org/mpphotos/070037/Photo/Website/CD%2010%20-%20Ardmore,%20The.png"
5502020005,-118.2977549,34.06505812,Alexandria House Apts.,510 S Alexandria Ave 1-20 Ca 90020,KOREATOWN,Rehab,Special Needs / Homeless Risk,800000,5928306,0,6728306,http://hcidapp.lacity.org/mpphotos/080050/Photo/Website/Alexandria%20House.jpg
5080030021,-118.3029831,34.05196644,Professional Hsg. & Dev. Apts. (Ph & D),"1020 S Kingsley Dr  Los Angeles, Ca 90006",KOREATOWN,Rehab,Family,4575000,10250907,0,14825907,http://hcidapp.lacity.org/mpphotos/080053/Photo/Website/PH&D%201020%20Kingsley.jpg
5502018025,-118.3001522,34.06410981,Normandie Terrace Apartment Homes,"540 S Normandie Ave 1-66  Los Angeles, Ca 90020",KOREATOWN,New Construction,Family,3200000,25449746,0,28649746,http://hcidapp.lacity.org/mpphotos/10-117548/Photo/Website/10-117548.JPG
5078026028,-118.2935686,34.05070746,La Pro Ii (Site 2),1100 S Berendo St Ca 90006,KOREATOWN,New Construction,Family,2000000,31674331,0,33674331,http://hcidapp.lacity.org/mpphotos/11-118571/Photo/Website%20Site2/la%20pro%20ii%2011-118571d.JPG
5080015076,-118.3065326,34.05339425,The Serrano,"975 S Serrano Ave 1-6  Los Angeles, Ca 90006",KOREATOWN,New Construction,Family,3500000,14368683,0,17868683,http://hcidapp.lacity.org/mpphotos/11-118598/Photo/Website/serrano975sserrano_101713003-Resampled.png
5503024004,-118.3026571,34.06422213,Ldk Senior Apartments (Site 2),540 S Kingsley Dr Ca 90020,KOREATOWN,Demo/New Construction,Seniors,8687337,17414515,212000,26313852,http://hcidapp.lacity.org/mpphotos/14-121119/Photo/Website%20Site2/LDK%20540%20Kingley.png
253017065,-118.3953122,34.27259324,Osborne Street Apartments,"12041 W Osborne St  Los Angeles, Ca 91342",LAKE VIEW TERRACE,New Construction,Family,3805976,15063116,0,18869092,http://lahd.lacity.org/mpphotos/11-117796/Photo/Website/11-117796.JPG
5205013009,-118.2186765,34.07838087,Flores Del Valle,"222 N Avenue 23  Los Angeles, Ca 90031",LINCOLN HEIGHTS,New Construction,Family,4800000,25074282,0,29874282,http://hcidapp.lacity.org/mpphotos/040051/Photo/Website/CD%201%20-%20James%20Woods%20Apts.jpg
5208019043,-118.2012227,34.08173826,Lexington Apartments A/B,3035 N Sierra St Ca 90031,LINCOLN HEIGHTS,Rehab,Family,0,6771719,10247566,17019285,http://hcidapp.lacity.org/mpphotos/ImageNotAvailable.png
5205012007,-118.2191513,34.08031953,Camino Al Oro,330 W Avenue 26 Ca 90031,LINCOLN HEIGHTS,New Construction,Seniors,681735,13128422,0,13810157,http://hcidapp.lacity.org/mpphotos/060021/Photo/Website/CD%201%20-%20Camino%20Al%20Oro.jpg
5205012008,-118.2195004,34.07925183,Tesoro Del Valle,2301 N Humboldt St Ca 90031,LINCOLN HEIGHTS,New Construction,Large Family / Waiver Required,936022,20075651,0,21011673,http://hcidapp.lacity.org/mpphotos/060022/Photo/Website/CD%201%20-%20Tesoro%20Del%20Valle%20-%20060022.jpg
5211007052,-118.2044559,34.07183535,Manitou Vistas I,"3414 E Manitou Ave  Los Angeles, Ca 90031",LINCOLN HEIGHTS,New Construction,Family,2749622,20163903,0,22913525,http://hcidapp.lacity.org/mpphotos/060060/Photo/Website/CD%201%20-%20Manitou%20Vistas.jpg
5210008030,-118.2130529,34.06411297,Sichel Family Apartments,1805 N Sichel St 1-37 Ca 90031,LINCOLN HEIGHTS,New Construction,Family,2877300,11028167,0,13905467,http://hcidapp.lacity.org/mpphotos/060083/Photo/Website/sichel1805sichel1of211308%20cropped.png
5211007052,-118.2044559,34.07183535,Manitou Vistas Ii,"3416 E Manitou Ave  Los Angeles, Ca 90031",LINCOLN HEIGHTS,New Construction,Family,1519500,8845275,0,10364775,http://hcidapp.lacity.org/mpphotos/070026/Photo/Website/CD%201%20-%20Manitou%20Vistas%20II%20-%20070026.JPG
5211012020,-118.2000016,34.07212662,Eecbg - Mission Plaza Apartments,2250 N Parkside Ave Ca 90031,LINCOLN HEIGHTS,N/A,N/A,500000,0,0,500000,http://hcidapp.lacity.org/mpphotos/ImageNotAvailable.png
5446025013,-118.2135412,34.08726426,Marmion Way Apartments,3500 N Marmion Way Ca 90065,LINCOLN HEIGHTS,New Construction,Special Needs / Homeless Vets,4333928,16387727,0,20721655,http://hcidapp.lacity.org/mpphotos/ImageNotAvailable.png
5147007020,-118.2433558,34.04473154,Downtown Women'S Center,434 S San Pedro St Ca 90013,DOWNTOWN,Rehab,Special Needs / Homeless,4847914,20062930,0,24910844,http://hcidapp.lacity.org/mpphotos/080058/Photo/Website/080058.JPG
5161025013,-118.2441328,34.04891399,Eecbg - Casa Heiwa,231 E 3Rd St Ca 90012,DOWNTOWN,Rehab,Family,709620,14126125,0,14835745,http://hcidapp.lacity.org/mpphotos/ImageNotAvailable.png
5161012014,-118.2403398,34.05075577,Eecbg - San Pedro Firm Building,"110 San Pedro St  Los Angeles, Ca 90012",DOWNTOWN,Rehab,Family,475931,1935000,0,2410931,http://hcidapp.lacity.org/mpphotos/ImageNotAvailable.png
5589034026,-118.2985231,34.10359702,Concord Apartments (Grp. A & B) (Site 4),1801 N Alexandria Ave Ca 90027,LOS FELIZ,Rehab,Family,0,7334438,8579256,15913694,http://hcidapp.lacity.org/mpphotos/ImageNotAvailable.png
5535002026,-118.3155889,34.08528239,Royals Apartments (Site 2),772 N Van Ness Ave Ca 90038,HOLLYWOOD,Rehab,Family,1100000,13039479,0,14139479,http://hcidapp.lacity.org/mpphotos/040067/Photo/Website%20Site2/royalsvanness772vannes315072of6(PNG).png
5536021016,-118.310151,34.08942552,Leeward Apts. (Site 5),5426 W Sierra Vista Ave Ca 90038,HOLLYWOOD,Rehab,Family,0,7103994,10208936,17312930,http://hcidapp.lacity.org/mpphotos/ImageNotAvailable.png
5521006019,-118.3035594,34.08315394,Lexington Apartments A/B (Site 2),649 N Kingsley Dr Ca 90004,EAST HOLLYWOOD,Rehab,Family,0,6771719,10247566,17019285,http://hcidapp.lacity.org/mpphotos/ImageNotAvailable.png
5535013015,-118.3119156,34.08499882,Queen Apartments (Site 2),5217 W Marathon St Ca 90038,HOLLYWOOD,Rehab,Family,0,10271751,7300000,17571751,http://hcidapp.lacity.org/mpphotos/07-117237/Photo/Website%20Site2/Queens%20Apt%20(Site2)%205217%20Marathon.png
5537023034,-118.3037592,34.08839946,Harvard Circle,"952 N Harvard Blvd 1-40  Los Angeles, Ca 90029",EAST HOLLYWOOD,New Construction,Family,6785617,16436770,0,23222387,http://hcidapp.lacity.org/mpphotos/070159/Photo/Website/CD%2013%20-%20Harvard%20Circle.JPG
5520006015,-118.2939008,34.07944125,Rosewood Gardens,502 N Berendo St Ca 90004,EAST HOLLYWOOD,New Construction,Seniors,4123640,18371699,0,22495339,http://hcidapp.lacity.org/mpphotos/070167/Photo/Website/CD%2013%20-%20Rosewood%20Gardens.JPG
5537020038,-118.3049877,34.08920526,Swansea Park Senior Apts.,1015 N Kingsley Dr Ca 90029,EAST HOLLYWOOD,Rehab,Seniors,3600000,16208353,0,19808353,http://hcidapp.lacity.org/mpphotos/080054/Photo/Website/080054.jpg
5533017010,-118.3268967,34.0902486,Step Up On Vine,"1057 N Vine St  Los Angeles, Ca 90038",HOLLYWOOD,Rehab,Special Needs / Chronically Homeless,334951,14811113,0,15146064,http://hcidapp.lacity.org/mpphotos/11-118677/Photo/Website/11-118677.JPG
5536016005,-118.313684,34.08833677,Hollywoodland (Site 3),977 N Wilton Pl Ca 90038,HOLLYWOOD,Acquisition + Rehab,Seniors,0,0,10500000,10500000,http://hcidapp.lacity.org/mpphotos/ImageNotAvailable.png
5535012016,-118.3106371,34.08499824,Hollywoodland (Site 4),5155 W Marathon St Ca 90038,HOLLYWOOD,Acquisition + Rehab,Seniors,0,0,10500000,10500000,http://hcidapp.lacity.org/mpphotos/ImageNotAvailable.png
5535012015,-118.3108352,34.08499868,Hollywoodland (Site 5),5169 W Marathon St Ca 90038,HOLLYWOOD,Acquisition + Rehab,Seniors,0,0,10500000,10500000,http://hcidapp.lacity.org/mpphotos/ImageNotAvailable.png
2421011046,-118.370079,34.15950027,Vineland Avenue Senior Housing,4900 N Vineland Ave 1-82 Ca 91601,NORTH HOLLYWOOD,New Construction,Seniors,1200212,19057134,0,20257346,http://hcidapp.lacity.org/mpphotos/09-117383/Photo/Website/09-117383.jpg
2350006042,-118.3754243,34.1706437,Noho Senior Villas,"5525 N Klump Ave 1-49  North Hollywood, Ca 91601",NORTH HOLLYWOOD,New Construction,Seniors,4932825,12092852,0,17025677,http://hcidapp.lacity.org/mpphotos/10-117669/Photo/Website/10-117669.JPG
2353004015,-118.3756263,34.1637075,Eecbg - Klump Sro,5120 N Klump Ave Ca 91601,NORTH HOLLYWOOD,Rehab,Special Needs,148497,904729,0,1053226,http://hcidapp.lacity.org/mpphotos/ImageNotAvailable.png
2322020066,-118.3894197,34.18884179,Hamlin Estates,11735 W Hamlin St Ca 91606,NORTH HOLLYWOOD,Acquisition + Rehab,Family,0,2936450,3211916,6148366,http://hcidapp.lacity.org/mpphotos/11-118721/Photo/Website/Hamlin150_1749.JPG
2654010001,-118.4653371,34.2298524,Columbus Transitional Hsg & Penny Lane,15256 W Acre St Ca 91343,NORTH HILLS,Rehab,Special Needs,532500,666519,0,1199019,http://hcidapp.lacity.org/mpphotos/010139/Photo/Website/CD%207%20-%20Columbus%20Transitional%2015257%20acre%20-%20010139.JPG
2654009012,-118.4653258,34.23103396,Columbus Transitional Hsg & Penny Lane (Site 2),15259 W Gresham St Ca 91343,NORTH HILLS,Rehab,Special Needs,532500,666519,0,1199019,http://hcidapp.lacity.org/mpphotos/010139/Photo/Website%20Site2/Columbust%20Transition%20Site%202.png
2654002169,-118.4709018,34.23538238,Woodland Terrace,15532 W Nordhoff St Ca 91343,NORTH HILLS,New Construction,Special Needs,1758184,10482585,0,12240769,http://hcidapp.lacity.org/mpphotos/040071/Photo/Website/CD%207%20-%20Woodland%20Terrace.JPG
2654032001,-118.4652742,34.23210816,Columbus Permanent,8906 N Columbus Ave 1-6 Ca 91343,NORTH HILLS,Rehab,Special Needs / Foster Youth,557200,466000,250000,1273200,http://hcidapp.lacity.org/mpphotos/050008/Photo/Website/CD%207%20-%20Columbus%20Permanent%20-%20050008.jpg
2654001052,-118.4723426,34.2334118,Orion Gardens Apartments,"8955 N Orion Ave 1-32  Los Angeles, Ca 91343",NORTH HILLS,Acquisition + New Construction,Family,3125520,11362911,0,14488431,http://hcidapp.lacity.org/mpphotos/070030/Photo/Website/DSCN2054.JPG
2654011022,-118.4667992,34.23178572,Rayen Apartments,15320 W Rayen St 1-49 Ca 91343,NORTH HILLS,New Construction,Special Needs,4547648,10522216,0,15069864,http://hcidapp.lacity.org/mpphotos/070046/Photo/Website/Rayen%20Apts.JPG
2654037081,-118.4673777,34.21785128,Andalucia Senior Apartments,"15305 W Lanark St  Los Angeles, Ca 91406",NORTH HILLS,New Construction,Seniors,9000040,21031906,0,30031946,http://hcidapp.lacity.org/mpphotos/080001/Photo/Website/CD%206%20-%20Andalucia%20Sr.%20Apts.%20-%20080001.JPG
2654021043,-118.465665,34.22669126,Columbus Square,8557 N Columbus Ave Ca 91343,NORTH HILLS,Rehab,Seniors,2350000,9475459,0,11825459,http://hcidapp.lacity.org/mpphotos/080003/Photo/Website/CD%207%20-%20Columbus%20Square.jpg
2656018034,-118.4679977,34.24038519,Crossings At North Hills,9311 N Sepulveda Blvd 1-4 Ca 91343,NORTH HILLS,Acquisition + New Construction,Family,3620719,13390025,0,17010744,http://hcidapp.lacity.org/mpphotos/09-104740/Photo/Website/crossingnh1512_011-.png
2654037082,-118.4670248,34.21809169,La Coruna Senior Apartments,15301 W Lanark St 1-87 Ca 91406,NORTH HILLS,New Construction,Seniors,2123930,23513261,0,25637191,http://hcidapp.lacity.org/mpphotos/10-117634/Photo/Website/10-117634.JPG
2536015225,-118.4022262,34.26192114,Osborne Family,12360 W Osborne St 1-2 Ca 91331,PACOIMA,New Construction,Large Family / Waiver Required,2754000,14999914,0,17753914,http://hcidapp.lacity.org/mpphotos/050033/Photo/Website/CD_7_-_Osborne_Family_Apts..png
2537001032,-118.3999147,34.26094348,Osborne Place Apartments,"12230-12232 W Osborne Pl  Los Angeles, Ca 91331",PACOIMA,New Construction,"Special Needs / Homeless, Mentally Ill Individuals",816074,27660460,0,28476534,http://hcidapp.lacity.org/mpphotos/10-117638/Photo/Website/10-117638%20.JPG
2536015029,-118.4027443,34.26151221,Moonlight Villas,"12381 W Osborne St  Los Angeles, Ca 91331",PACOIMA,New Construction,Special Needs,2044211,10243590,0,12287801,http://hcidapp.lacity.org/mpphotos/12-118879/Photo/Website/Moonlight%20Villas.png
2626005032,-118.4183762,34.24746335,Laurel Village,"9700 N Laurel Canyon Blvd  Pacoima, Ca 91331",PACOIMA,Acquisition + Rehab,Family,0,13426883,9100000,22526883,http://hcidapp.lacity.org/mpphotos/ImageNotAvailable.png
2644025006,-118.4500325,34.24500436,Villas Las Americas,9618 N Van Nuys Blvd 1-55 Ca 91402,PANORAMA CITY,New Construction,Large Family / Waiver Required,4657000,14709148,0,19366148,http://hcidapp.lacity.org/mpphotos/060069/Photo/Website/CD%207%20-%20Villas%20Las%20Americas%20-%20060069.jpg
2644025255,-118.4499008,34.24534852,Asturias Senior Apts.,9628 N Van Nuys Blvd Ca 91402,PANORAMA CITY,New Construction,Seniors,6437840,18806838,0,25244678,http://hcidapp.lacity.org/mpphotos/070019/Photo/Website/CD_7_-_Asturias_Sr._Apts._-_070019.png
2644025254,-118.4496883,34.24569664,Cantabria Senior Apts.,9640 N Van Nuys Blvd Ca 91402,PANORAMA CITY,New Construction,Seniors,7561160,23323383,0,30884543,http://hcidapp.lacity.org/mpphotos/070022/Photo/Website/CD%207%20-%20Cantabria%20Sr.%20Apts..jpg
2639008137,-118.4499913,34.23798313,Panorama View,9222 N Van Nuys Blvd 1-89 Ca 91402,PANORAMA CITY,Rehab,Seniors,2175000,12467773,0,14642773,http://hcidapp.lacity.org/mpphotos/070031/Photo/Website/CD%207%20-%20Panorama%20View.jpg
2210020003,-118.4527125,34.21532107,Montecito Terraces,"14653 W Blythe St  Van Nuys, Ca 91402",PANORAMA CITY,Acquisition + New Construction,Seniors,3035582,21684852,0,24720434,http://hcidapp.lacity.org/mpphotos/09-117301/Photo/Website/Montecito__14655_Blythe.png
2210021029,-118.4539433,34.21508867,Montecito Terraces (Site 2),14726 W Blythe St Ca 91402,PANORAMA CITY,Acquisition + New Construction,Seniors,3035582,21684852,0,24720434,http://hcidapp.lacity.org/mpphotos/09-117301/Photo/Website%20Site2/Montecito_14726_Blythe%20Site%202.png
2651012028,-118.4548703,34.23196903,Willis Avenue Apartments,"14731 W Rayen St 1-42  Los Angeles, Ca 91402",PANORAMA CITY,New Construction,Seniors,3119057,14281039,0,17400096,http://hcidapp.lacity.org/mpphotos/10-117630/Photo/Website/10-117630.JPG
2651009078,-118.4506397,34.23862259,Tobias Terrace Apartments,9247 N Van Nuys Blvd 1-56 Ca 91402,PANORAMA CITY,New Construction,Family,4856000,12875942,0,17731942,http://hcidapp.lacity.org/mpphotos/11-118591/Photo/Website/11-118591.JPG
5137007027,-118.2702179,34.0489941,James Wood Apartments,1328 W James M Wood Blvd 1-18 Ca 90015,PICO-UNION,New Construction,Family,3233454,14858587,2100000,20192041,http://hcidapp.lacity.org/mpphotos/040001/Photo/Website/James%20Woods%20(1).jpg
5135016017,-118.2809006,34.04092927,Leeward Apts. (Site 3),1134 W 17Th St 1-28 Ca 90015,PICO-UNION,Rehab,Family,0,7103994,10208936,17312930,http://hcidapp.lacity.org/mpphotos/ImageNotAvailable.png
5137034009,-118.2790844,34.04649912,Concord Apartments (Grp. A & B) (Site 7),1682 W 12Th Pl Ca 90006,PICO-UNION,Rehab,Family,0,7334438,8579256,15913694,http://hcidapp.lacity.org/mpphotos/ImageNotAvailable.png
5137025004,-118.2752846,34.04671885,Concord Apartments (Grp. A & B) (Site 8),1546 W 11Th Pl Ca 90015,PICO-UNION,Rehab,Family,0,7334438,8579256,15913694,http://hcidapp.lacity.org/mpphotos/ImageNotAvailable.png
5135005008,-118.2806622,34.04459013,Concord Apartments (Grp. A & B) (Site 9),1350 S Bonnie Brae St Ca 90006,PICO-UNION,Rehab,Family,0,7334438,8579256,15913694,http://hcidapp.lacity.org/mpphotos/ImageNotAvailable.png
5135004006,-118.281382,34.04630484,Two World Apartments (Site 3),1306 S Westlake Ave Ca 90006,PICO-UNION,Rehab,Seniors,3225000,17094146,0,20319146,http://hcidapp.lacity.org/mpphotos/070172/Photo/Website%20Site3/Two%20Worlds%201306%20S.%20Westlake%20-%20070172.png
5056012007,-118.2862383,34.04103531,Professional Hsg. & Dev. Apts. (Ph & D) (Site 5),"1810 S Magnolia Ave  Los Angeles, Ca 90006",PICO-UNION,Rehab,Family,4575000,10250907,0,14825907,http://hcidapp.lacity.org/mpphotos/080053/Photo/Website%20Site5/PH&D%201810%20Magnolia.jpg
5137032023,-118.2756514,34.04493775,Mosaic Apartments,1521 W Pico Blvd 1-56 Ca 90015,PICO-UNION,New Construction,Family,746480,20733937,0,21480417,http://hcidapp.lacity.org/mpphotos/09-117198/Photo/Website/mosaic%20cropped.png
5076019031,-118.2905101,34.04814997,Menlo Family Housing,"1230 S Menlo Ave  Los Angeles, Ca 90006",PICO-UNION,New Construction,Family,6309887,19253250,0,25563137,http://hcidapp.lacity.org/mpphotos/10-104715/Photo/Website/10-104715.JPG
5076019029,-118.2893178,34.04831475,Freeman Villa,1229 S Westmoreland Ave Ca 90006,PICO-UNION,Acquisition + Rehab,Seniors,0,3973637,3886000,7859637,http://hcidapp.lacity.org/mpphotos/ImageNotAvailable.png
4322010032,-118.4323701,34.03854961,Pico Veteran Senior Housing,10991 W Pico Blvd Ca 90064,RANCHO PARK,New Construction,Seniors,2400000,8573015,0,10973015,http://hcidapp.lacity.org/mpphotos/07-117248/Photo/Website/Pico%20Veteran%20Senior%20Housing.jpg
2119021045,-118.5336334,34.20245417,Canby Woods Senior Housing,7238 N Canby Ave 1-98 Ca 91335,RESEDA,New Construction,Seniors,2347003,22425602,0,24772605,http://hcidapp.lacity.org/mpphotos/10-117559/Photo/Website/10-117559.JPG
2129035082,-118.5450224,34.20031987,Sherman Village,7135 N Wilbur Ave Ca 91335,RESEDA,New Construction,Family,2495405,23873005,0,26368410,http://hcidapp.lacity.org/mpphotos/10-117639/Photo/Website/10-117639.JPG
2125015003,-118.5345829,34.19033482,Riverwalk At Reseda,"18425 W Kittridge St  Reseda, Ca 91335",RESEDA,New Construction,Family,301059,23698618,0,23999677,http://hcidapp.lacity.org/mpphotos/12-118779/Photo/Website/12-118779.JPG
2103009036,-118.5362797,34.21656566,Coral Wood Court,8025 N Reseda Blvd Ca 91335,RESEDA,Acquisition + Rehab,Family,0,13355261,13000000,26355261,http://hcidapp.lacity.org/mpphotos/13-119142/Photo/Website/Coralwood%20Court%20Apt.png
7449014020,-118.2810727,33.74429276,Toberman Village / Aka Vista Alegre,"142 W Santa Cruz St 1-49  Los Angeles, Ca 90731",SAN PEDRO,New Construction,Family,4875640,10632391,1162445,16670476,http://hcidapp.lacity.org/mpphotos/070170/Photo/Website/toberman92711_006-.png
2263009024,-118.4659227,34.16288591,Orange Wood Court,5050 N Sepulveda Blvd Ca 91403,SHERMAN OAKS,Acquisition + Rehab,Family,0,7321491,9334100,16655591,http://hcidapp.lacity.org/mpphotos/13-119143/Photo/Website/orangewood%20court.png
5429008030,-118.281614,34.09448362,Laguna Senior Apts.,4201 W Sunset Blvd Ca 90029,SILVER LAKE,New Construction,Seniors,2310000,10951074,1850000,15111074,http://hcidapp.lacity.org/mpphotos/020290/Photo/Website/Laguna_sunset.jpg
5501001003,-118.2907801,34.07731997,Juanita Villas / Aka La Kretz Villas,"335-337 N Juanita Ave 1-49  Los Angeles, Ca 90004",SILVER LAKE,New Construction,Special Needs,4809092,7010004,0,11819096,http://hcidapp.lacity.org/mpphotos/09-117641/Photo/Website/lakretz335njuanita_52214_017.png
5433023040,-118.2734167,34.10587933,Silverlake Apartments,3740 W Evans St Ca 90027,SILVER LAKE,Rehab,Family,0,21533504,0,21533504,http://hcidapp.lacity.org/mpphotos/11-118594/Photo/Website/Silverlake.png
5110027025,-118.2786256,33.9963361,Broadway Village Ii,5101 S Broadway 1-50 Ca 90037,SOUTH PARK,New Construction,Family,1987378,10017311,0,12004689,http://hcidapp.lacity.org/mpphotos/010113/Photo/Website/CD_9_-_Broadway_Village_II_-_010113[1].png
5018034019,-118.2824317,34.00220972,Mansi Town Homes,4520 S Figueroa St 1-21 Ca 90037,SOUTH PARK,New Construction,Family,892500,4654752,0,5547252,http://hcidapp.lacity.org/mpphotos/040050/Photo/Website/CD%209%20-%20Mansi%20Town%20Homes%20-%20040050.jpg
5018037015,-118.2821401,33.99819518,Casa De Angeles,4900 S Figueroa St 1-49 Ca 90037,SOUTH PARK,New Construction,Family,3473280,12884573,0,16357853,http://hcidapp.lacity.org/mpphotos/060007/Photo/Website/CD%209%20-%20Casa%20de%20Angeles.jpg
5110015013,-118.2785288,33.99946995,36Th Street And Broadway Apartments,4777 S Broadway Ca 90037,SOUTH PARK,Rehab,Special Needs,2938772,8338570,0,11277342,http://hcidapp.lacity.org/mpphotos/080071/Photo/Website/080071b.JPG
5110025032,-118.274295,33.99606936,Sunrise Apartments,5125 S Main St 1-46 Ca 90037,SOUTH PARK,New Construction,Seniors,2202568,11040406,0,13242974,http://hcidapp.lacity.org/mpphotos/10-117556/Photo/Website/10-117556.JPG
5001033033,-118.2824732,33.9953637,Figueroa Apartments,"5216 S Figueroa St  Los Angeles, Ca 90037",SOUTH PARK,Rehab,Special Needs / Homeless,987637,3784378,0,4772015,http://hcidapp.lacity.org/mpphotos/11-117735/Photo/Website/Figueroa%20Apts.jpg
5067008008,-118.3423278,34.04432772,Windward Apts (A/B) (Site 4),4817 W Saturn St Ca 90019,MID-CITY,Rehab,Family,0,7438473,4641342,12079815,http://hcidapp.lacity.org/mpphotos/ImageNotAvailable.png
2629019017,-118.4049745,34.2334275,Palm Village Sr,9034 N Laurel Canyon Blvd Ca 91352,SUN VALLEY,New Construction,Seniors,1772385,8934200,0,10706585,http://hcidapp.lacity.org/mpphotos/040052/Photo/Website/CD_6_-_Palm_Village_Apts[1].png
2408006038,-118.3679324,34.23091688,Glenoaks Gardens,"8925 N Glenoaks Blvd  Sun Valley, Ca 91352",SUN VALLEY,New Construction,Special Needs / With Mental Illness,2223673,16396025,0,18619698,http://hcidapp.lacity.org/mpphotos/09-117266/Photo/Website/glenoaks89251512_001-.png
2314008004,-118.3705426,34.21348501,Eecbg - Vineland Place,7843 N Vineland Ave Ca 91352,SUN VALLEY,Rehab,Family,330300,1995205,0,2325505,http://hcidapp.lacity.org/mpphotos/ImageNotAvailable.png
2556022033,-118.3112437,34.25982737,Burns Manor,8155 W Foothill Blvd Ca 91040,SUNLAND,Acquisition + Rehab,Seniors,0,9454441,5245559,14700000,http://hcidapp.lacity.org/mpphotos/08-117194/Photo/Website/burnsmanor8155foothill_.png
2611010055,-118.4510384,34.29027856,El Dorado Family Apartments,12129 N El Dorado Ave Ca 91342,SYLMAR,Acquisition + New Construction,Family,5800000,15462252,0,21262252,http://hcidapp.lacity.org/mpphotos/060009/Photo/Website/CD%207%20-%20El%20Dorado%20Family%20Apts..JPG
2582002017,-118.4698775,34.32402446,Oakridge Family Homes,"15455 Glenoaks Blvd  Los Angeles, Ca 91342",SYLMAR,Rehab,Family,4500000,8548904,0,13048904,http://hcidapp.lacity.org/mpphotos/11-117922/Photo/Website/oakridge4714_002.png
2604021032,-118.4643754,34.3028844,Seven Palms Apts.,12831 N San Fernando Road Ca 91342,SYLMAR,Acquisition + Rehab,Family,0,4707357,5442000,10149357,http://hcidapp.lacity.org/mpphotos/ImageNotAvailable.png
5156018011,-118.2789406,34.07169745,St. Anne'S Transitional Housing,155 N Occidental Blvd Ca 90026,WESTLAKE,New Construction,Special Needs / Foster Youth,2000000,8758249,0,10758249,http://hcidapp.lacity.org/mpphotos/020093/Photo/Website/CD_13_-_St._Anne's_Transitional%202.png
5160010029,-118.2568901,34.06426437,Court Street Apts.,1301 W Court St Ca 90026,ECHO PARK,New Construction,Family,2143000,4691845,0,6834845,http://hcidapp.lacity.org/mpphotos/020285/Photo/Website/CD%201%20-%20Court%20Street%20Apts..JPG
5157020019,-118.269886,34.06912177,Ingram Preservation,234 N Lake St 1-14 Ca 90026,WESTLAKE,Rehab,Large Family / Waiver Required,4900000,6637761,2790000,14327761,http://hcidapp.lacity.org/mpphotos/030159/Photo/Website/IngramPres_Lake.png
5153015002,-118.2620418,34.06033277,Witmer Manor Preservation Apts.,1501 W Miramar St Ca 90026,WESTLAKE,Rehab,Family,0,6846132,8834003,15680135,http://hcidapp.lacity.org/mpphotos/04-117264/Photo/Website/witmer2.png
5152007049,-118.259958,34.05962879,Emerald Terrace Apts.,"1345 W Emerald Dr  Los Angeles, Ca 90026",WESTLAKE,New Construction,Large Family / Waiver Required,4287128,19724861,0,24011989,http://hcidapp.lacity.org/mpphotos/040008/Photo/Website/CD%201%20-%20Emeral%20Terrace%20-%20040008.jpg
5154011012,-118.2724023,34.06629991,Magnolia On Lake,201 S Lake St 1-46 Ca 90057,WESTLAKE,New Construction,Family,2669000,10784854,0,13453854,http://hcidapp.lacity.org/mpphotos/040010/Photo/Website/CD%2013%20-%20Magnolia%20on%20Lake.jpg
5152007027,-118.2600517,34.06046784,Coronita Family,"204 S Lucas Ave 1-21  Los Angeles, Ca 90026",WESTLAKE,Acquisition + New Construction,Family,2269560,5680952,0,7950512,http://hcidapp.lacity.org/mpphotos/050029/Photo/Website/coronita204lucas3of511308(PNG).png
5153030026,-118.2608567,34.06173246,Witmer Heights,116 S Witmer St Ca 90026,WESTLAKE,New Construction,Family,2846000,10865989,0,13711989,http://hcidapp.lacity.org/mpphotos/050036/Photo/Website/CD%2013%20-%20Witmer%20Heights.jpg
5159005023,-118.2651001,34.06909858,"Mediterranean, The / Aka The Mindanao","1800-1812 W Temple St  Los Angeles, Ca 90026",WESTLAKE,New Construction,Large Family / Waiver Required,2559552,10813200,0,13372752,"http://hcidapp.lacity.org/mpphotos/060066/Photo/Website/CD_1_-_Mediterranean,_The__-_060066.png"
5402039027,-118.2664431,34.07368311,Clinton Family Apts.,2114 W Clinton St 1-36 Ca 90026,ECHO PARK,New Construction,Family,2804900,11184695,0,13989595,http://hcidapp.lacity.org/mpphotos/060082/Photo/Website/clintonfam_3(PNG).png
5154001023,-118.2686234,34.06402731,Bonnie Brae Village,208 S Bonnie Brae St 1-92 Ca 90057,WESTLAKE,Acquisition + New Construction,Seniors,10948429,22282386,0,33230815,http://hcidapp.lacity.org/mpphotos/070157/Photo/Website/CD%2013%20-%20Bonnie%20Brae%20Village%20Apts..JPG
5154003009,-118.2692715,34.06363431,Miramar Village,240 S Westlake Ave Ca 90057,WESTLAKE,New Construction,Family,11569040,29891944,0,41460984,http://hcidapp.lacity.org/mpphotos/080009/Photo/Website/CD%2013%20-%20Miramar%20Village.JPG
5426016003,-118.2746456,34.08417426,Vendome Palms,975 N Vendome St 1-36 Ca 90026,SILVER LAKE,Rehab,Special Needs / Homeless,2832750,11031113,0,13863863,http://hcidapp.lacity.org/mpphotos/080057/Photo/Website/Vendome-Palms_overs-639x312.png
5160010001,-118.2562553,34.06447704,Eecbg - Angelina Apartments,"1300 Angelina St  Los Angeles, Ca 90026",ECHO PARK,Rehab,Family,441350,0,0,441350,http://hcidapp.lacity.org/mpphotos/ImageNotAvailable.png
5159015009,-118.2601771,34.06345827,Pwc Family Housing,153 N Glendale Blvd 1-45 Ca 90026,WESTLAKE,New Construction,Family,3406936,16171140,0,19578076,http://hcidapp.lacity.org/mpphotos/11-118584/Photo/Website/PWC%20Family%20Housing.png
5160020051,-118.2542178,34.06607963,Vista Angelina,418 N East Edgeware Road Ca 90026,ECHO PARK,Acquisition + Rehab,Family,0,9932434,6227000,16159434,http://hcidapp.lacity.org/mpphotos/11-118624/Photo/Website/Vista%20Angelina%20png.png
5544010027,-118.3036342,34.10265632,Hollywood Bungalow Courts,"1721 N Kingsley Dr  Los Angeles, Ca 90027",LOS FELIZ,Acquisition + Rehab,Family,4390000,17823840,0,22213840,http://hcidapp.lacity.org/mpphotos/080004/Photo/Website/CD%2014%20-%20Hollywood%20Bungalows%20-%201721%20Kingsley.jpg
5544019004,-118.3069606,34.09897298,Hollywood Bungalow Courts (Site 2),"1516 N Serrano Ave  Los Angeles, Ca 90027",EAST HOLLYWOOD,Acquisition + Rehab,Family,4390000,17823840,0,22213840,http://hcidapp.lacity.org/mpphotos/080004/Photo/Website%20Site2/CD%2013%20-%20Hollywood%20Bungalows%20-%201516%20Serrano.jpg
5544019002,-118.3069661,34.09960971,Hollywood Bungalow Courts (Site 3),"1544 N Serrano Ave  Los Angeles, Ca 90027",EAST HOLLYWOOD,Acquisition + Rehab,Family,4390000,17823840,0,22213840,http://hcidapp.lacity.org/mpphotos/080004/Photo/Website%20Site3/Cd%2013%20-%20Hollywood%20Bungalows%20-%201544%20Serrano.png
5544019001,-118.3069685,34.09990033,Hollywood Bungalow Courts (Site 4),"1554 N Serrano Ave  Los Angeles, Ca 90027",EAST HOLLYWOOD,Acquisition + Rehab,Family,4390000,17823840,0,22213840,http://hcidapp.lacity.org/mpphotos/080004/Photo/Website%20Site4/CD%2013%20-%20Hollywood%20Bungalows%20-%201554%20Serrano.png
2558034032,-118.2997634,34.25468146,Day Street Apartments,"7647 W Day St 1-3  Los Angeles, Ca 91042",TUJUNGA,New Construction,Special Needs,1745082,12860088,0,14605170,http://hcidapp.lacity.org/mpphotos/12-118770/Photo/Website/Day%20Street.png
5124031012,-118.2776354,34.032512,Alegria Apartments,801 W 23Rd St Ca 90007,UNIVERSITY PARK,Rehab,Family,602162,3087124,0,3689286,http://hcidapp.lacity.org/mpphotos/020291/Photo/Website/CD%201%20-%20Alegria%20-%20020291.jpg
5123011023,-118.2801982,34.02589466,Windward Apts (A/B) (Site 10),710 W 30Th St Ca 90007,UNIVERSITY PARK,Rehab,Family,0,7438473,4641342,12079815,http://hcidapp.lacity.org/mpphotos/ImageNotAvailable.png
5124011008,-118.2810621,34.03158203,Hdr I & Ii (Site 4),2375 S Scarff St Ca 90007,UNIVERSITY PARK,Rehab,Family,0,8116043,6787000,14903043,http://hcidapp.lacity.org/mpphotos/ImageNotAvailable.png
5055027031,-118.2872962,34.02978746,Hdr I & Ii (Site 5),2714 S Orchard Ave Ca 90007,UNIVERSITY PARK,Rehab,Family,0,8116043,6787000,14903043,http://hcidapp.lacity.org/mpphotos/ImageNotAvailable.png
5055026019,-118.2873071,34.03200215,Queen Apartments,2620 S Orchard Ave Ca 90007,UNIVERSITY PARK,Rehab,Family,0,10271751,7300000,17571751,http://hcidapp.lacity.org/mpphotos/07-117237/Photo/Website/Queens%20Apt%20(site1)%202620%20Orchid.png
5124031013,-118.2777903,34.0325633,Two World Apartments,809 23Rd St Ca 90007,UNIVERSITY PARK,Rehab,Seniors,3225000,17094146,0,20319146,http://hcidapp.lacity.org/mpphotos/070172/Photo/Website/Two%20Worlds%20809%20W.%2023rd%20St.%20-%20070172.png
6117009027,-118.2913982,33.92327314,Academy Hall,12010 S Vermont Ave Ca 90044,HARBOR GATEWAY,Rehab,Family,0,6631570,2278011,8909581,http://hcidapp.lacity.org/mpphotos/09-117197/Photo/Website/BONDS%20Burns%20Manor.png
2327017034,-118.4176278,34.201029,Colonia Corona Apts. (Csp I),13044 W Sherman Way Ca 91605,VALLEY GLEN,New Construction,Family,10527004,5835087,2918726,19280817,http://hcidapp.lacity.org/mpphotos/000115/Photo/Website/CD%202%20-%20Colonia%20Corona.JPG
2328014046,-118.4264482,34.19408542,Hfl Van Nuys Apartments,13457 W Vanowen St Ca 91405,VALLEY GLEN,New Construction,Special Needs / Mentally Ill Individuals,975900,2688221,0,3664121,http://hcidapp.lacity.org/mpphotos/030115/Photo/Website/CD%202%20-%20HFL%20Van%20Nuys.jpg
2216034019,-118.4328997,34.20226039,Ivy Terrace  Aka Three Courtyards Apts.,"13751 W Sherman Way 1-52  Los Angeles, Ca 91405",VALLEY GLEN,New Construction,Large Family / Waiver Required,7762524,16182763,0,23945287,http://hcidapp.lacity.org/mpphotos/080055/Photo/Website/080055.JPG
2216002058,-118.4398133,34.20286597,Hazeltine & Wyandotte,"7250 N Hazeltine Ave  Van Nuys, Ca 91405",VALLEY GLEN,Acquisition + Rehab,Family,0,7193281,10381000,17574281,http://hcidapp.lacity.org/mpphotos/12-119044/Photo/Website/150_1637.png
2210027012,-118.4526389,34.20924025,Saticoy Gardens,14649 W Saticoy St Ca 91405,VAN NUYS,New Construction,Large Family / Waiver Required,2003000,4126190,1100000,7229190,http://hcidapp.lacity.org/mpphotos/020206/Photo/Website/CD%206%20-%20Saticoy%20Gardens%20Apts..jpg
2217009015,-118.4471865,34.19406919,Hfl Vanowen Apartments,14419 W Vanowen St Ca 91405,VAN NUYS,New Construction,Special Needs,1225000,5917180,0,7142180,http://hcidapp.lacity.org/mpphotos/050055/Photo/Website/CD%206%20-%20HFL%20Vanowen%20Apts.jpg
2218021034,-118.4557733,34.201401,Fickett Towers,14801 W Sherman Way Ca 91405,VAN NUYS,Acquisition + Rehab,Seniors,0,5648228,15500000,21148228,http://hcidapp.lacity.org/mpphotos/11-118659/Photo/Website/Fickett.png
2218023009,-118.4520279,34.20289229,Hazeltine & Wyandotte (Site 2),"14630 W Wyandotte St  Van Nuys, Ca 91405",VAN NUYS,Acquisition + Rehab,Family,0,7193281,10381000,17574281,http://hcidapp.lacity.org/mpphotos/12-119044/Photo/Website%20Site2/150_1643.png
2221019117,-118.4647823,34.20144709,Vistas Apartments,15211 W Sherman Way 1-99 Ca 91405,VAN NUYS,Acquisition + Rehab,Seniors,0,11506201,10707645,22213846,http://hcidapp.lacity.org/mpphotos/13-119140/Photo/Website/Vistas%20Apartmetns.png
2219007027,-118.4520811,34.20013377,West Valley Towers,14650 W Sherman Way Ca 91405,VAN NUYS,Acquisition + Rehab,Seniors,0,12527434,10920000,23447434,http://hcidapp.lacity.org/mpphotos/ImageNotAvailable.png
4226006006,-118.4742453,33.98837452,Horizon Apartments,"15 E Horizon Ave  Venice, Ca 90291",VENICE,Rehab,Special Needs / Homeless With Disabilities,750000,4590602,0,5340602,http://hcidapp.lacity.org/mpphotos/09-117283/Photo/Website/Horizon%20Apartments.png
6020020027,-118.2830067,33.97011867,Figueroa Senior Housing,"7621 S Figueroa St 1-11  Los Angeles, Ca 90044",VERMONT KNOLLS,New Construction,Seniors,4650000,6013775,0,10663775,http://hcidapp.lacity.org/mpphotos/11-117842/Photo/Website/11-117842.JPG
5017027032,-118.2919123,33.99832338,Vermont Avenue Apartments,4915 S Vermont Ave 1-49 Ca 90037,VERMONT SQUARE,New Construction,Family,3017456,15172897,0,18190353,http://hcidapp.lacity.org/mpphotos/10-117605/Photo/Website/10-117605.JPG
6041003037,-118.2736896,33.95788446,Las Brisas,8760 S Main St Ca 90003,VERMONT VISTA,New Construction,Large Family / Waiver Required,5616938,10809341,0,16426279,http://hcidapp.lacity.org/mpphotos/040005/Photo/Website/CD%208%20-%20Las%20Brisas.jpg
6040026034,-118.2771,33.95634786,Leeward Apts.,230 W 88Th Pl 1-12 Ca 90003,VERMONT VISTA,Rehab,Family,0,7103994,10208936,17312930,http://hcidapp.lacity.org/mpphotos/ImageNotAvailable.png
6032026027,-118.2848285,33.96562557,Windward Apts (A/B) (Site 3),621 W 81St St 1-11 Ca 90044,VERMONT VISTA,Rehab,Family,0,7438473,4641342,12079815,http://hcidapp.lacity.org/mpphotos/ImageNotAvailable.png
6053015041,-118.2746044,33.94658232,Windward Apts (A/B) (Site 16),111 W 99Th St 1-4 Ca 90003,VERMONT VISTA,Rehab,Family,0,7438473,4641342,12079815,http://hcidapp.lacity.org/mpphotos/ImageNotAvailable.png
6032020018,-118.2848308,33.96226622,Windward Apts (A/B) (Site 18),621 W 84Th St 1-5 Ca 90044,VERMONT VISTA,Rehab,Family,0,7438473,4641342,12079815,http://hcidapp.lacity.org/mpphotos/ImageNotAvailable.png
6038001020,-118.2837311,33.95893728,Two World Apartments (Site 2),8640 S Denver Ave 1-8 Ca 90044,VERMONT VISTA,Rehab,Seniors,3225000,17094146,0,20319146,http://hcidapp.lacity.org/mpphotos/070172/Photo/Website%20Site2/Two%20Worlds%20%208640%20S.%20Denver%20-%20070172.png
6053022008,-118.2779601,33.94529997,Milan Town Homes,10006 S Broadway Ca 90003,VERMONT VISTA,New Construction,Family,1600000,6340418,0,7940418,http://hcidapp.lacity.org/mpphotos/09-117382/Photo/Website/milan10006sbroad_010-.png
6053006926,-118.2768987,33.95052044,Broadway Villas,"9413 S Spring St 101-116  Los Angeles, Ca 90003",VERMONT VISTA,New Construction,Seniors,4500000,9452553,0,13952553,http://hcidapp.lacity.org/mpphotos/10-117596/Photo/Website/Broadway%20Villas.jpg
6032019034,-118.2865931,33.96305545,Martha Bryant Manor- Recap,8300 S Hoover St Ca 90044,VERMONT VISTA,Rehab,Large Family / Waiver Required,0,7558174,4410000,11968174,http://hcidapp.lacity.org/mpphotos/ImageNotAvailable.png
5108021026,-118.2566833,33.99988088,Mount Zion Towers,4827 S Central Ave 1-118 Ca 90011,SOUTH PARK,Rehab,Seniors,1833759,2925649,3701300,8460708,http://hcidapp.lacity.org/mpphotos/020288/Photo/Website/CD%209%20-%20Mount%20Zion.JPG
5115019033,-118.2566917,34.00694663,Dunbar Village,"4225 S Central Ave  Los Angeles, Ca 90011",HISTORIC SOUTH-CENTRAL,Acquisition + Rehab,Family,12019660,17563532,0,29583192,http://hcidapp.lacity.org/mpphotos/11-117837/Photo/Website/Dunbar%20Village.JPG
5115019908,-118.256689,34.00744663,Dunbar Village (Site 2),4201 S Central Ave Ca 90011,HISTORIC SOUTH-CENTRAL,Acquisition + Rehab,Family,12019660,17563532,0,29583192,http://hcidapp.lacity.org/mpphotos/11-117837/Photo/Website%20Site2/dunbar4914_005%20copy.png
5115018900,-118.2566975,34.00651736,Dunbar Village (Site 3),4251 S Central Ave Ca 90011,HISTORIC SOUTH-CENTRAL,Acquisition + Rehab,Family,12019660,17563532,0,29583192,http://hcidapp.lacity.org/mpphotos/11-117837/Photo/Website%20Site3/Dunbar2[1].jpg
5103023033,-118.2566452,33.99418769,Central Avenue Village Square,1060 E 53Rd St Ca 90011,SOUTH PARK,Acquisition + Rehab,Family,0,10539506,3007104,13546610,http://hcidapp.lacity.org/mpphotos/ImageNotAvailable.png
5108022001,-118.2567303,34.00066437,One Wilkins Place,"1071 E 48Th St  Los Angeles, Ca 90011",SOUTH PARK,Acquisition + Rehab,Family,0,3657261,1174874,4832135,http://hcidapp.lacity.org/mpphotos/ImageNotAvailable.png
5108021026,-118.2566833,33.99988088,Juanita Tate Legacy Towers,4827 S Central Ave 1-118 Ca 90011,SOUTH PARK,Acquisition + Rehab,N/A,0,0,17125000,17125000,http://hcidapp.lacity.org/mpphotos/ImageNotAvailable.png
5072036002,-118.3190868,34.04683402,Second Avenue Apartments,1309 S 2Nd Ave Ca 90019,ARLINGTON HEIGHTS,Rehab,Seniors,350829,3049057,0,3399886,http://hcidapp.lacity.org/mpphotos/060064/Photo/Website/Second%20Avenue%20-%20060064.jpg
5072037019,-118.3178955,34.04609719,Professional Hsg. & Dev. Apts. (Ph & D) (Site 3),"1401 S Arlington Ave  Los Angeles, Ca 90019",ARLINGTON HEIGHTS,Rehab,Family,4575000,10250907,0,14825907,http://hcidapp.lacity.org/mpphotos/080053/Photo/Website%20Site3/PH&D%201401%20Arlington.jpg
6065010050,-118.2537902,33.94081903,Leeward Apts. (Site 11),"1206 E 105Th St  Los Angeles, Ca 90002",WATTS,Rehab,Family,0,7103994,10208936,17312930,http://hcidapp.lacity.org/mpphotos/ImageNotAvailable.png
6065010046,-118.2539356,33.93949718,Leeward Apts. (Site 12),10634 S Central Ave Ca 90002,WATTS,Rehab,Family,0,7103994,10208936,17312930,http://hcidapp.lacity.org/mpphotos/ImageNotAvailable.png
6065010054,-118.2539391,33.93919636,Leeward Apts. (Site 13),10648 S Central Ave Ca 90002,WATTS,Rehab,Family,0,7103994,10208936,17312930,http://hcidapp.lacity.org/mpphotos/ImageNotAvailable.png
6066019011,-118.2318129,33.93947407,Lexington Apartments A/B (Site 9),10607 S Kalmia St Ca 90002,WATTS,Rehab,Family,0,6771719,10247566,17019285,http://hcidapp.lacity.org/mpphotos/ImageNotAvailable.png
6065001052,-118.2539294,33.94133241,Imani Fe East & West,10424 S Central Ave 1-49 Ca 90002,WATTS,New Construction,Family,6001178,31661768,0,37662946,http://hcidapp.lacity.org/mpphotos/060059/Photo/Website/CD_8_-_Imani_Fe_West.png
6048001024,-118.2476655,33.95200256,Mccoy Plaza Apartments,"9315 S Firth Blvd 1-8  Los Angeles, Ca 90002",WATTS,New Construction,Family,5985000,41513856,0,47498856,http://hcidapp.lacity.org/mpphotos/070044/Photo/Website/070044.jpg
5059004029,-118.3330623,34.03429035,Rosa Parks Villas,2440 S Crenshaw Blvd Ca 90018,JEFFERSON PARK,New Construction,Seniors,6635267,12056911,0,18692178,http://hcidapp.lacity.org/mpphotos/070033/Photo/Website/CD%2010%20-%20Rosa%20Parks%20Villas%20-%20070033.png
5074031027,-118.3024358,34.03921865,Ingram Preservation (Site 2),1935 S La Salle Ave 1-33 Ca 90018,WEST ADAMS,Rehab,Large Family / Waiver Required,4900000,6637761,2790000,14327761,http://hcidapp.lacity.org/mpphotos/030159/Photo/Website%20Site2/IngramPres_LaSalle.png
5060029026,-118.3187027,34.03733059,Ingram Preservation (Site 4),2120 S 2Nd Ave Ca 90018,WEST ADAMS,Rehab,Large Family / Waiver Required,4900000,6637761,2790000,14327761,http://hcidapp.lacity.org/mpphotos/030159/Photo/Website%20Site4/2nd%20Ave%202.png
5054020020,-118.2955309,34.03317661,Lexington Apartments A/B (Site 6),2521 S Juliet St Ca 90007,WEST ADAMS,Rehab,Family,0,6771719,10247566,17019285,http://hcidapp.lacity.org/mpphotos/ImageNotAvailable.png
5058021013,-118.3042052,34.03375839,Lexington Apartments A/B (Site 10),1835 W 25Th St Ca 90018,WEST ADAMS,Rehab,Family,0,6771719,10247566,17019285,http://hcidapp.lacity.org/mpphotos/ImageNotAvailable.png
5055019031,-118.2842032,34.0363552,Windward Apts (A/B),2131 S Hoover St Ca 90007,WEST ADAMS,Rehab,Family,0,7438473,4641342,12079815,http://hcidapp.lacity.org/mpphotos/ImageNotAvailable.png
5056030010,-118.2893208,34.03800133,Windward Apts (A/B) (Site 2),1514 W 20Th St Ca 90007,WEST ADAMS,Rehab,Family,0,7438473,4641342,12079815,http://hcidapp.lacity.org/mpphotos/ImageNotAvailable.png
5058023044,-118.3055384,34.03618119,Windward Apts (A/B) (Site 20),2210 S La Salle Ave Ca 90018,WEST ADAMS,Rehab,Family,0,7438473,4641342,12079815,http://hcidapp.lacity.org/mpphotos/ImageNotAvailable.png
5051015008,-118.3280769,34.03143606,Windward Apts (A/B) (Site 9),3922 W 27Th St Ca 90018,WEST ADAMS,Rehab,Family,0,7438473,4641342,12079815,http://hcidapp.lacity.org/mpphotos/ImageNotAvailable.png
5075037024,-118.2958465,34.03823876,Professional Hsg. & Dev. Apts. (Ph & D) (Site 4),"1745 W 20Th  Los Angeles, Ca 90007",WEST ADAMS,Rehab,Family,4575000,10250907,0,14825907,http://hcidapp.lacity.org/mpphotos/080053/Photo/Website%20Site4/PH&D%201400%20Kenmore.jpg
5001024019,-118.2829811,33.99255421,Mimmim Town Homes,5417 S Figueroa St 1-21 Ca 90037,VERMONT-SLAUSON,New Construction,Family,945683,6101295,0,7046978,http://lahd.lacity.org/mpphotos/060012/Photo/Website/CD%209%20-%20Mimmim%20Townhomes.jpg
5003029016,-118.3082097,33.98982777,Hdr I & Ii,1733 W 58Th St Ca 90062,HARVARD PARK,Rehab,Family,0,8116043,6787000,14903043,http://hcidapp.lacity.org/mpphotos/ImageNotAvailable.png
5020025015,-118.2930958,34.00538262,Hdr I & Ii (Site 2),1040 W 43Rd St Ca 90037,VERMONT SQUARE,Rehab,Family,0,8116043,6787000,14903043,http://hcidapp.lacity.org/mpphotos/ImageNotAvailable.png
5015013017,-118.3139716,33.99969958,Two World Apartments (Site 4),4807 S Gramercy Pl Ca 90062,VERMONT SQUARE,Rehab,Seniors,3225000,17094146,0,20319146,http://hcidapp.lacity.org/mpphotos/070172/Photo/Website%20Site4/Two%20Worlds%20%204807%20Gramercy%20Pl.%20-%20070172.png
5020027008,-118.2932593,34.00720309,Two World Apartments (Site 6),1048 W 42Nd St Ca 90037,VERMONT SQUARE,Rehab,Seniors,3225000,17094146,0,20319146,http://hcidapp.lacity.org/mpphotos/070172/Photo/Website%20Site6/Two%20Worlds%201048%20W%2042nd%20St.%20-%20070172.png
5019023029,-118.2836146,34.00977421,Stovall Villas,535 W 41St St 1-32 Ca 90037,VERMONT SQUARE,New Construction,Seniors,4230942,4868100,0,9099042,http://hcidapp.lacity.org/mpphotos/09-117207/Photo/Website/Stovall%20villas.jpg
5005020011,-118.3127159,33.99384194,La Pro Ii (Site 4),5311 S Ruthelen St Ca 90062,VERMONT SQUARE,New Construction,Family,2000000,31674331,0,33674331,http://hcidapp.lacity.org/mpphotos/11-118571/Photo/Website%20Site4/la%20pro%20ii%2011-118571b.JPG
5001021032,-118.2829381,33.99218542,Figueroa Senior Housing,5503 S Figueroa St Ca 90037,VERMONT-SLAUSON,Rehab,N/A,0,4001864,1584000,5585864,http://hcidapp.lacity.org/mpphotos/ImageNotAvailable.png
5154026023,-118.2732272,34.05895781,Historic Barbizon Hotel Apts.,1927 W 6Th St 1-51 Ca 90057,WESTLAKE,Rehab,Family,5009394,13935814,0,18945208,http://hcidapp.lacity.org/mpphotos/000111/Photo/Website/CD_1_-_Barbizon_Hotel.png
5155029010,-118.2792257,34.06164023,Asbury,2501 W 6Th St Ca 90057,WESTLAKE,Rehab,Seniors,4018000,3307020,5600000,12925020,http://hcidapp.lacity.org/mpphotos/020279/Photo/Website/CD%201%20-%20Asbury%20Apts..jpg
5153006024,-118.2676898,34.05844277,Union Point,420 S Union Dr 1-21 Ca 90017,WESTLAKE,New Construction,Large Family / Waiver Required,2334000,5910494,0,8244494,http://hcidapp.lacity.org/mpphotos/050035/Photo/Website/CD%201%20-%20Union%20Point%20Apts.jpg
5143013029,-118.2686965,34.05362764,Concord Apartments (Grp. A & B),1348 W Ingraham St Ca 90017,WESTLAKE,Rehab,Family,0,7334438,8579256,15913694,http://hcidapp.lacity.org/mpphotos/06-117195/Photo/Website/BONDS%20Concord%20A%20&%20B.png
5153005027,-118.2693032,34.05788472,Concord Apartments (Grp. A & B) (Site 2),522 S Union Ave Ca 90017,WESTLAKE,Rehab,Family,0,7334438,8579256,15913694,http://hcidapp.lacity.org/mpphotos/ImageNotAvailable.png
5141014008,-118.2818427,34.05732893,Concord Apartments (Grp. A & B) (Site 3),743 S Carondelet St Ca 90057,WESTLAKE,Rehab,Family,0,7334438,8579256,15913694,http://hcidapp.lacity.org/mpphotos/ImageNotAvailable.png
5141024013,-118.2822901,34.05617997,Carondelet Court Apt Homes,"816 S Carondelet St 1-33  Los Angeles, Ca 90057",WESTLAKE,New Construction,Family,2587880,10716545,0,13304425,http://hcidapp.lacity.org/mpphotos/060006/Photo/Website/CD%201%20-%20Carondelet%20Court.JPG
5154031033,-118.274953,34.06145423,Villas Del Lago,456 S Lake St Ca 90057,WESTLAKE,New Construction,Family,5282280,20093729,0,25376009,http://hcidapp.lacity.org/mpphotos/060068/Photo/Website/CD%201%20-%20Villas%20Del%20Lago.jpg
5154032016,-118.2760678,34.06164088,Macarthur Park Tower,450 S Grand View St Ca 90057,WESTLAKE,Acquisition + Rehab,Seniors,0,21975257,7387654,29362911,http://hcidapp.lacity.org/mpphotos/07-117236/Photo/Website/BONDS%20MacArthur%20Park%20Tower%20(wide%20shot).png
5153023017,-118.2629692,34.05631632,Queen Apartments (Site 3),445 S Lucas Ave Ca 90017,WESTLAKE,Rehab,Family,0,10271751,7300000,17571751,http://hcidapp.lacity.org/mpphotos/07-117237/Photo/Website%20Site3/Queens%20(site3)%20445%20Lucas.png
5153023019,-118.2630444,34.05619402,Queen Apartments (Site 4),451 S Lucas Ave Ca 90017,WESTLAKE,Rehab,Family,0,10271751,7300000,17571751,http://hcidapp.lacity.org/mpphotos/07-117237/Photo/Website%20Site4/Queens%20Apt%20(site4)%20457%20Lucas.png
5153005026,-118.2692622,34.05794082,Queen Apartments (Site 5),516 S Union Ave Ca 90017,WESTLAKE,Rehab,Family,0,10271751,7300000,17571751,http://hcidapp.lacity.org/mpphotos/07-117237/Photo/Website%20Site5/Queens%20Apt(site5)%20516%20Union.png
5141013029,-118.2831974,34.0591635,Seven Maples,2618 W 7Th St Ca 90057,WESTLAKE,New Construction,Seniors,4124520,14506378,0,18630898,http://hcidapp.lacity.org/mpphotos/070034/Photo/Website/CD%201%20-%20Seven%20Maples.jpg
5153023008,-118.2632679,34.05710165,Andalucia Heights,450 S Hartford Ave Ca 90017,WESTLAKE,New Construction,Family,5354118,19753513,0,25107631,http://hcidapp.lacity.org/mpphotos/08-117188/Photo/Website/andalucia%20heights.png
5142002904,-118.2749958,34.05664078,Macarthur Park Metro Apts-Phase A,"681 S Bonnie Brae St  Los Angeles, Ca 90057",WESTLAKE,New Construction,Family,10935748,14269866,2450000,27655614,http://hcidapp.lacity.org/mpphotos/080006/Photo/Website/macparkmetro1901_7th_7213019%20[2].png
5142015004,-118.2747995,34.05264258,Young Burlington Apartments,"820 S Burlington Ave 1-21  Los Angeles, Ca 90017",WESTLAKE,New Construction,Special Needs,1845000,9161655,0,11006655,http://hcidapp.lacity.org/mpphotos/080011/Photo/Website/080011.png
5154026026,-118.2722913,34.05924051,Bonnie Brae Apartment Homes,"501 S Bonnie Brae St  Los Angeles, Ca 90057",WESTLAKE,New Construction,Family,6400000,19143914,0,25543914,http://hcidapp.lacity.org/mpphotos/080051/Photo/Website/bonniebrae500_12-.png
5141001036,-118.2751166,34.05883759,Parkview On The Park,622 S Alvarado St Ca 90057,WESTLAKE,Rehab,Special Needs,6000000,15159034,0,21159034,http://hcidapp.lacity.org/mpphotos/080056/Photo/Website/080056%2009-05-2008.jpg
5143024008,-118.2628616,34.05322014,Bixel House Apartments,625 S Bixel St Ca 90017,WESTLAKE,Rehab,Special Needs / Low Income Individuals,850000,10220352,0,11070352,http://hcidapp.lacity.org/mpphotos/10-117625/Photo/Website/Bixel%20House.jpg
5141010007,-118.2827009,34.0612979,Eecbg - Bryson Family Apts.,2701 W Wilshire Blvd Ca 90057,WESTLAKE,Rehab,Family,240127,0,0,240127,http://hcidapp.lacity.org/mpphotos/10-117850/Photo/Website/bryson%20family%20apts%20png.png
5154035003,-118.2767592,34.0641507,Knob Hill Apts.,"2403 W 4Th St  Los Angeles, Ca 90057",WESTLAKE,New Construction,Special Needs / Seniors-Hiv/Aids,1100000,13788616,0,14888616,http://hcidapp.lacity.org/mpphotos/12-118876/Photo/Website/Nob%20Hills.png
5141025005,-118.2826068,34.05640325,The Six (Formerly Carondelet Apartments),"811 S Carondelet St  Los Angeles, Ca 90057",WESTLAKE,New Construction,Special Needs / Homeless,4277100,11875978,0,16153078,http://hcidapp.lacity.org/mpphotos/13-119320/Photo/Website/thesix.png
5154026001,-118.272309,34.05891431,The Paseo At Californian,1901 W 6Th St Ca 90057,WESTLAKE,New Construction,Family,11261417,5078417,10600000,26939834,http://hcidapp.lacity.org/mpphotos/14-121117/Photo/Website/Paseo%20At%20Californian.png
5148025025,-118.2471476,34.04115599,Yankee Hotel,501 E 7Th St Ca 90014,DOWNTOWN,Rehab,Special Needs,2019320,8432786,0,10452106,http://hcidapp.lacity.org/mpphotos/010315/Photo/Website/CD%209%20-%20The%20Yankee%20Hotel.jpg
5147029002,-118.2441714,34.03905326,New Terminal Hotel,901 E 7Th St Ca 90021,DOWNTOWN,Rehab,Special Needs,2115000,3342950,0,5457950,http://hcidapp.lacity.org/mpphotos/020277/Photo/Website/CD_14_-_New_Terminal[1].png
5148025008,-118.2462963,34.04145399,Rainbow Apartments,645 S San Pedro St Ca 90014,DOWNTOWN,New Construction,Special Needs,3500000,13279250,0,16779250,http://hcidapp.lacity.org/mpphotos/030156/Photo/Website/CD%209%20-%20Rainbow%20Apts..jpg
5131008039,-118.25319,34.02469191,Lexington Apartments A/B (Site 13),1151 E 20Th St Ca 90011,HISTORIC SOUTH-CENTRAL,Rehab,Family,0,6771719,10247566,17019285,http://hcidapp.lacity.org/mpphotos/ImageNotAvailable.png
5148025017,-118.2460297,34.0417958,Abbey Apartments,625 S San Pedro St 1-115 Ca 90014,DOWNTOWN,New Construction,Special Needs / Disability,3500000,23108748,1091000,27699748,http://hcidapp.lacity.org/mpphotos/050028/Photo/Website/CD%209%20-%20Abbey%20Apts.JPG
5148024007,-118.2479983,34.04176795,Lyndon Hotel,413 E 7Th St Ca 90014,DOWNTOWN,Rehab,Special Needs / Homeless/Mentally Ill,2035070,6438646,0,8473716,http://hcidapp.lacity.org/mpphotos/060011/Photo/Website/Lyndon.png
5148012009,-118.2445397,34.04356859,Charles Cobb Apartments,"521 S San Pedro St  Los Angeles, Ca 90013",DOWNTOWN,New Construction,Special Needs,3772148,16506143,0,20278291,http://hcidapp.lacity.org/mpphotos/060162/Photo/Website/CD_9_-_Charles_Cobb_Apts.__-__060162[1].png
5148012005,-118.2447444,34.04439059,James M. Wood,408 E 5Th St Ca 90013,DOWNTOWN,New Construction,Special Needs,4160000,10555970,0,14715970,http://hcidapp.lacity.org/mpphotos/070043/Photo/Website/James%20M%20Wood%20HIMS%20070043_Picture.png
5148014013,-118.2457717,34.04384912,Renato Apartments,531 S San Julian St 1-96 Ca 90013,DOWNTOWN,New Construction,Special Needs / Homeless,9500000,16649424,0,26149424,http://hcidapp.lacity.org/mpphotos/070168/Photo/Website/Renato.jpg
5174024020,-118.2202012,34.04738856,Boyle Hotel,101 N Boyle Ave Ca 90033,BOYLE HEIGHTS,Rehab,Family,4265571,20018291,0,24283862,http://hcidapp.lacity.org/mpphotos/10-117557/Photo/Website/10-117557.JPG
5164009012,-118.2380019,34.03828348,Eecbg - Las Americas Hotel,1205 E 6Th St Ca 90013,DOWNTOWN,Rehab,Family,221216,1518288,0,1739504,http://hcidapp.lacity.org/mpphotos/10-117849/Photo/Website/Las-Americas-Hotel2.png
5163017900,-118.231973,34.04797944,One Santa Fe,100 S Santa Fe Ave Ca 90012,DOWNTOWN,New Construction,Family,4000000,94077717,0,98077717,http://hcidapp.lacity.org/mpphotos/10-117900/Photo/Website/10-117900.jpg
5148012019,-118.2444398,34.0439229,Gateways Apartments,505 S San Pedro St Ca 90013,DOWNTOWN,New Construction,Special Needs,9411904,19989366,0,29401270,http://hcidapp.lacity.org/mpphotos/11-117804/Photo/Website/gateway505sanpedro_102213004.png
5148023020,-118.2476056,34.04350139,Star Apartments,240 E 6Th St Ca 90014,DOWNTOWN,New Construction,Special Needs,3000000,37140676,0,40140676,http://hcidapp.lacity.org/mpphotos/11-117809/Photo/Website/STAR_APARTMENTSmaple-845x684.png
5414013900,-118.2369149,34.06479765,Blossom Plaza,900 N North Broadway Ca 90012,CHINATOWN,New Construction,Family,5300270,22244151,0,27544421,http://hcidapp.lacity.org/mpphotos/ImageNotAvailable.png
5131006005,-118.2568401,34.02711997,Washington 722 Tod,722 E Washington Blvd Ca 90011,HISTORIC SOUTH-CENTRAL,New Construction,Family,2280000,23788431,0,26068431,http://hcidapp.lacity.org/mpphotos/ImageNotAvailable.png
7417011900,-118.2741804,33.77484688,New Dana Strand Townhomes,425 N Wilmington Blvd Ca 90744,WILMINGTON,New Construction,Family,2904285,31786029,2090000,36780314,http://hcidapp.lacity.org/mpphotos/050005/Photo/Website/CD%2015%20-%20New%20Dana%20Strand%20Townhomes.JPG
7417012905,-118.2761601,33.77359997,Dana Strand Sr. Apts.,410 N Hawaiian Ave 1-100 Ca 90744,WILMINGTON,New Construction,Seniors,3840000,8320832,10147212,22308044,http://hcidapp.lacity.org/mpphotos/09-117267/Photo/Website/danastrand111611_008-.png
7423020046,-118.2581309,33.78532723,Banning Villa Apartment,"1100 N Banning Blvd  Wilmington, Ca 90744",WILMINGTON,Rehab,Seniors,0,10965825,10100000,21065825,http://hcidapp.lacity.org/mpphotos/13-118975/Photo/Website/banning%205.png
5077020016,-118.2847641,34.05860346,Leeward Apts. (Site 4),2818 W Leeward Ave Ca 90005,WESTLAKE,Rehab,Family,0,7103994,10208936,17312930,http://hcidapp.lacity.org/mpphotos/ImageNotAvailable.png
5077027011,-118.2862216,34.05575385,Concord Apartments (Grp. A & B) (Site 5),2674 W James M Wood Blvd Ca 90006,WESTLAKE,Rehab,Family,0,7334438,8579256,15913694,http://hcidapp.lacity.org/mpphotos/ImageNotAvailable.png
5077023015,-118.2896855,34.0575119,Caroline Severance Manor,"2914 - 2924 W 8Th St  Los Angeles, Ca 90005",KOREATOWN,New Construction,Special Needs,891000,31386403,0,32277403,http://hcidapp.lacity.org/mpphotos/11-117793/Photo/Website/severancemanor4814_007.png
5518029006,-118.2939857,34.070033,The Berendos Apts.,226 S Berendo St Ca 90004,KOREATOWN,Acquisition + Rehab,Special Needs / Formerly Homeless/Mental Illness,0,0,8115543,8115543,http://hcidapp.lacity.org/mpphotos/ImageNotAvailable.png
5518022016,-118.2943204,34.06980132,The Berendos Apts. (Site 2),235 S Berendo St Ca 90004,KOREATOWN,Acquisition + Rehab,Special Needs / Formerly Homeless/Mental Illness,0,0,8115543,8115543,http://hcidapp.lacity.org/mpphotos/ImageNotAvailable.png
5501018002,-118.2849869,34.07300098,Beverly Terrace,3314 W Beverly Blvd Ca 90004,WESTLAKE,New Construction,Special Needs,6332409,13740176,951500,21024085,http://hcidapp.lacity.org/mpphotos/14-121629/Photo/Website/150_2873.png
